# 2022  8 23 16 29 47.63  26.8985  102.8428   16.63  0.00  0.70  1.02  0.01         1
06          3.500   1.000   P
06          5.310   1.000   S
04          4.370   1.000   P
04          6.970   1.000   S
03         12.360   1.000   S
# 2022  8 24  0  4  0.46  27.2882  102.8560    2.49  0.00  0.00  0.00  5.58         2
02          3.210   1.000   P
02          4.780   1.000   S
08         11.520   1.000   P
08         17.640   1.000   S
# 2022  8 25  5 42 36.05  26.9072  102.8552    4.33  0.00  6.07  7.17  1.46         3
01          4.730   1.000   S
04          5.560   1.000   S
02          8.680   1.000   P
02         11.670   1.000   S
10          9.030   1.000   P
10         11.270   1.000   S
# 2022  8 25  7 53 29.40  27.2168  102.5535   34.09  0.00  4.36  2.07  0.34         4
04          7.550   1.000   P
04         11.210   1.000   S
02          9.180   1.000   P
01         17.260   1.000   S
10         15.500   1.000   P
# 2022  8 25 20 33 34.17  26.5740  103.1772    4.91  0.00  6.94  4.63  0.40         5
10          2.360   1.000   P
10          4.300   1.000   S
07          5.670   1.000   P
07          8.750   1.000   S
# 2022  8 25 20 44 20.27  26.7897  103.0310    5.22  0.00  3.42  9.08  0.38         6
08          0.690   1.000   P
08          1.530   1.000   S
01          3.430   1.000   P
01          5.440   1.000   S
02          9.700   1.000   P
02         14.930   1.000   S
# 2022  8 26  0 10 19.90  26.8448  102.8088    9.58  0.00  0.88  3.57  0.04         7
01          3.020   1.000   P
06          3.670   1.000   P
06          5.800   1.000   S
07          5.920   1.000   P
07          9.980   1.000   S
# 2022  8 26  2 10 37.05  27.2603  102.9332    2.53  0.00  9.96  4.55  0.75         8
03          0.590   1.000   S
04         10.000   1.000   S
01          7.810   1.000   P
01         10.460   1.000   S
# 2022  8 26  4 10 28.90  27.2555  103.1017    3.38  0.00  2.39  2.71  0.17         9
02          1.840   1.000   P
02          3.540   1.000   S
04         13.740   1.000   S
08         10.280   1.000   P
08         16.790   1.000   S
# 2022  8 26  4 53 50.47  27.1533  102.9977    4.95  0.00  6.70  4.05  0.51        10
03          2.190   1.000   P
03          4.090   1.000   S
01          5.010   1.000   P
07          7.710   1.000   P
07         10.550   1.000   S
# 2022  8 26 11 27 32.31  27.0858  102.8120    2.37  0.00  0.00  0.00  4.09        11
04          1.690   1.000   P
04          3.170   1.000   S
06          3.330   1.000   P
06          5.010   1.000   S
07         13.130   1.000   S
# 2022  8 26 13 22 17.06  27.3185  103.0303    2.50  0.00  0.00  0.00  7.89        12
02          1.060   1.000   P
03          3.420   1.000   P
03          3.580   1.000   S
08         10.710   1.000   P
08         19.280   1.000   S
# 2022  8 26 15 55  5.03  26.9858  102.9037   19.74  0.00  8.44  3.86  0.42        13
06          5.090   1.000   S
01          3.240   1.000   P
01          5.690   1.000   S
04          5.710   1.000   P
04          7.130   1.000   S
# 2022  8 28  3 53 16.60  26.6893  103.1310    2.49  0.00  0.00  0.00  4.25        14
08          3.390   1.000   S
08          3.390   1.000   P
10          3.390   1.000   P
10          3.390   1.000   S
07          3.390   1.000   S
07          3.390   1.000   P
# 2022  8 29  9 58 15.66  26.8193  102.9595    2.50  0.00  0.00  0.00  3.59        15
08          2.320   1.000   S
01          2.210   1.000   P
01          3.580   1.000   S
03          8.690   1.000   P
# 2022  8 29 15 51  6.90  26.9430  102.8002   18.64  0.00  6.71  6.83  0.71        16
01          3.330   1.000   P
01          6.700   1.000   S
08          9.460   1.000   S
07          8.560   1.000   P
07         10.920   1.000   S
# 2022  8 29 18 50 15.60  26.8375  103.2872    2.51  0.00  4.05  4.28  0.55        17
07          2.150   1.000   P
07          3.440   1.000   S
01          6.910   1.000   P
01         12.320   1.000   S
10          6.910   1.000   P
10         12.040   1.000   S
# 2022  8 29 19 57 46.50  27.1175  102.9652   11.78  0.00  1.51  2.51  0.15        18
06          3.770   1.000   P
06          5.620   1.000   S
04          4.750   1.000   P
04          8.240   1.000   S
10         18.280   1.000   S
# 2022  8 30 11 57 14.14  27.4680  103.0200    2.50  0.00  3.01  1.57  0.16        19
02          4.280   1.000   P
02          7.560   1.000   S
04         10.030   1.000   P
01         18.860   1.000   S
08         13.980   1.000   P
# 2022  8 30 12 14 21.03  27.0158  103.1962    2.50  0.00  0.00  0.00  9.22        20
07          3.020   1.000   P
07          6.060   1.000   S
02          7.350   1.000   P
02          8.930   1.000   S
10         16.190   1.000   S
# 2022  8 30 22 13 11.24  26.6170  102.5615    7.83  0.00  3.86  7.84  0.10        21
10          8.750   1.000   P
04          8.750   1.000   P
01          8.750   1.000   P
02         24.150   1.000   S
# 2022  8 31  3  1 14.62  26.8437  102.8338    2.43  0.00  0.00  0.00  2.58        22
01          2.610   1.000   S
06          1.970   1.000   P
08          2.430   1.000   P
08          3.740   1.000   S
07          8.290   1.000   P
10          7.030   1.000   P
# 2022  8 31  7  3 37.15  26.9280  102.7765   16.11  0.00  1.87  4.17  0.22        23
04          3.140   1.000   P
04          5.670   1.000   S
06          4.140   1.000   P
06          5.970   1.000   S
07         11.400   1.000   S
10         14.710   1.000   S
# 2022  8 31  7 11  1.62  27.2533  102.9062    5.76  0.00  4.88  8.45  0.70        24
02          1.980   1.000   P
02          2.860   1.000   S
06          6.480   1.000   P
06          8.880   1.000   S
07         16.100   1.000   S
08          8.800   1.000   P
# 2022  8 31 18 25 13.94  26.9877  103.2740    2.52  0.00  6.35  4.53  0.58        25
07          4.130   1.000   P
07          4.940   1.000   S
06          6.150   1.000   P
06         11.260   1.000   S
10         16.280   1.000   S
# 2022  8 31 19 14 48.42  26.8320  103.1840    2.51  0.00  9.81  7.95  1.00        26
07          1.280   1.000   S
06          7.120   1.000   P
06          9.340   1.000   S
03         15.730   1.000   S
# 2022  8 31 19 21 42.87  26.6798  103.0310    9.68  0.00  6.35  5.34  0.87        27
08          1.220   1.000   P
08          4.180   1.000   S
07          5.280   1.000   P
07          5.850   1.000   S
02         18.470   1.000   S
# 2022  8 31 22 44 36.45  26.9278  103.0778    2.52  0.00  2.30  5.02  0.59        28
06          2.560   1.000   P
06          4.190   1.000   S
02          7.320   1.000   P
02         10.620   1.000   S
04         12.390   1.000   S
10          7.310   1.000   P
# 2022  9  1  2 34 20.24  26.9958  103.0118    2.50  0.00  1.18  2.59  0.27        29
01          1.890   1.000   P
01          3.720   1.000   S
02          8.680   1.000   S
04          9.310   1.000   S
10         14.960   1.000   S
# 2022  9  1 21 36  8.13  26.7215  103.0070    2.49  0.00  0.00  0.00  3.77        30
10          2.810   1.000   P
10          5.200   1.000   S
01          2.860   1.000   P
01          8.250   1.000   S
# 2022  9  2  3 33 18.22  26.9117  103.0235    2.00  0.00  0.00  0.00  0.29        31
01          1.770   1.000   P
07          1.770   1.000   P
08          3.140   1.000   P
02          7.560   1.000   P
# 2022  9  2 12  7  9.01  27.0222  103.0010    4.25  0.00  5.30  7.08  1.17        32
06          0.080   1.000   P
06          4.330   1.000   S
02          5.640   1.000   P
02          6.390   1.000   S
08          9.790   1.000   S
10         14.750   1.000   S
# 2022  9  2 15  7  3.82  26.5768  102.7333   30.87  0.00  1.55  1.94  0.04        33
08          7.550   1.000   P
08         12.520   1.000   S
04         10.070   1.000   P
03         14.090   1.000   P
02         24.010   1.000   S
# 2022  9  2 17 21 22.39  26.8970  102.6393    2.51  0.00  5.17  6.63  0.62        34
04          3.190   1.000   P
04          4.850   1.000   S
01          5.410   1.000   P
01          8.240   1.000   S
02         17.550   1.000   S
# 2022  9  2 21 23 14.72  27.0977  103.0453    4.74  0.00  6.08  4.65  0.68        35
02          5.270   1.000   S
03          5.270   1.000   P
03          5.270   1.000   S
07          5.270   1.000   P
10         18.070   1.000   S
# 2022  9  3  2 56 55.95  26.6107  103.0000    4.94  0.00  3.79  5.55  0.51        36
10          0.790   1.000   P
10          3.240   1.000   S
08          2.970   1.000   P
07          8.550   1.000   S
06          7.700   1.000   P
# 2022  9  3  7 33 14.90  27.0260  102.8763   18.82  0.00  4.27  7.82  0.99        37
06          5.090   1.000   P
06          5.090   1.000   S
04          5.090   1.000   S
04          5.090   1.000   P
03          5.090   1.000   P
08          5.090   1.000   P
# 2022  9  3 13  3 45.22  26.9363  103.2230    4.66  0.00  7.38  8.07  0.70        38
07          2.420   1.000   P
07          4.040   1.000   S
01          6.640   1.000   P
01          8.340   1.000   S
03          7.840   1.000   P
# 2022  9  3 15 32 47.96  26.8997  103.1748    2.51  0.00  4.62  4.62  0.72        39
07          0.090   1.000   P
07          1.120   1.000   S
01          4.510   1.000   P
01          8.040   1.000   S
10          7.750   1.000   P
10         12.020   1.000   S
# 2022  9  3 17  3 14.86  27.0048  102.9145    1.97  0.00  0.00  0.00  0.46        40
06          0.120   1.000   S
04          5.130   1.000   P
02          5.130   1.000   P
08          5.130   1.000   P
# 2022  9  3 20 13 15.21  26.7345  102.9642   18.43  0.00  0.78  1.20  0.00        41
08          4.780   1.000   S
07          4.780   1.000   P
10          4.780   1.000   P
01          4.780   1.000   P
# 2022  9  3 22  2  1.21  26.6223  103.0372    2.48  0.00  0.00  0.00  2.43        42
10          2.170   1.000   S
08          1.960   1.000   P
08          4.270   1.000   S
06          9.390   1.000   P
# 2022  9  3 23  6 53.01  26.8053  103.0745   18.51  0.00  8.47  8.17  0.80        43
07          4.270   1.000   P
07          4.970   1.000   S
06          5.370   1.000   P
10          6.880   1.000   P
10          7.890   1.000   S
02          7.850   1.000   P
# 2022  9  4  9 43 48.41  27.0072  102.9660    2.49  0.00  0.00  0.00  4.27        44
06          0.850   1.000   S
02          5.910   1.000   P
02          7.750   1.000   S
10         10.270   1.000   P
# 2022  9  4 14 34 15.66  27.1958  102.8013    2.50  0.00  6.72  9.68  0.86        45
02          2.940   1.000   P
02          7.780   1.000   S
06          4.330   1.000   P
06          7.610   1.000   S
01          6.400   1.000   P
01         10.880   1.000   S
10         14.150   1.000   P
10         22.210   1.000   S
# 2022  9  4 15 19 54.13  26.9222  102.8625   17.80  0.00  6.28  8.43  1.27        46
06          5.860   1.000   S
04          5.860   1.000   S
04          5.860   1.000   P
08          5.860   1.000   P
08          5.860   1.000   S
03          5.860   1.000   P
# 2022  9  5  8 23 16.74  27.2853  103.0697   11.62  0.00  5.02  3.56  0.42        47
02          3.250   1.000   P
02          3.250   1.000   S
03          3.250   1.000   P
01         13.500   1.000   S
07          8.010   1.000   P
# 2022  9  5 16 12 46.17  26.9990  102.8595    2.83  0.00  8.78  7.09  0.52        48
01          1.830   1.000   P
01          3.140   1.000   S
02          6.350   1.000   P
02          9.110   1.000   S
07         10.890   1.000   S
# 2022  9  5 19 54 10.75  26.7742  103.2753    2.49  0.00  0.00  0.00  4.85        49
07          0.790   1.000   P
10          7.480   1.000   P
10          8.130   1.000   S
01          7.120   1.000   P
06         14.510   1.000   S
# 2022  9  6  1 48 23.28  26.5297  103.1610    2.17  0.00  0.00  0.00  6.03        50
10          1.690   1.000   P
10          3.360   1.000   S
07          6.960   1.000   P
07          8.720   1.000   S
04         22.870   1.000   S
# 2022  9  6  2 34 19.41  26.8770  103.1273    2.49  0.00  0.00  0.00  7.04        51
06          3.270   1.000   P
10         11.470   1.000   S
02          9.490   1.000   P
02         12.470   1.000   S
# 2022  9  6  5 43 31.13  26.9633  102.6938    2.51  0.00  8.92  6.91  0.79        52
04          0.570   1.000   P
04          1.930   1.000   S
08         11.230   1.000   S
02          8.790   1.000   P
02         12.930   1.000   S
# 2022  9  6 18 39 57.92  26.9918  102.8265    2.06  0.00  0.00  0.00  0.56        53
06          2.070   1.000   P
06          2.070   1.000   S
04          2.070   1.000   P
10          9.840   1.000   P
# 2022  9  6 20 59 15.59  26.7955  102.5035    7.14  0.00  1.71  8.18  0.01        54
01          7.910   1.000   P
01         13.210   1.000   S
06         13.890   1.000   S
03         11.510   1.000   P
03         19.460   1.000   S
# 2022  9  7  0 40 12.36  27.4158  103.0898    6.04  0.00  5.12  3.57  0.34        55
02          4.310   1.000   P
02          6.160   1.000   S
04          9.950   1.000   P
01          9.570   1.000   P
08         22.100   1.000   S
# 2022  9  7  6 26 58.21  27.1622  103.1125   19.45  0.00  1.26  1.94  0.08        56
02          4.340   1.000   P
02          6.410   1.000   S
07          6.920   1.000   P
07         11.520   1.000   S
08         14.290   1.000   S
# 2022  9  7 12 55 17.83  26.7313  103.0150    3.69  0.00  4.66  1.46  0.40        57
08          1.290   1.000   S
10          4.050   1.000   P
10          5.490   1.000   S
06          8.320   1.000   S
04          8.750   1.000   P
04         13.520   1.000   S
# 2022  9  7 19 14 43.74  26.8883  103.0407    2.49  0.00  0.00  0.00  3.00        58
06          0.390   1.000   P
06          3.540   1.000   S
08          2.800   1.000   P
08          4.400   1.000   S
04          8.880   1.000   P
# 2022  9  7 20  0 57.48  26.8550  102.7025    2.49  0.00  0.00  0.00  6.47        59
01          4.270   1.000   P
01          6.020   1.000   S
10          6.440   1.000   P
10         14.670   1.000   S
03          8.460   1.000   P
02          9.490   1.000   P
# 2022  9  8  0 54 35.36  26.7017  102.9927    2.48  0.00  0.00  0.00  2.85        60
08          0.940   1.000   S
07          4.730   1.000   P
07          6.630   1.000   S
04          8.740   1.000   P
# 2022  9  8  4 27 20.09  26.7012  103.1532    5.18  0.00  4.47  9.96  0.64        61
07          2.850   1.000   P
07          3.950   1.000   S
10          5.160   1.000   S
01          6.940   1.000   P
01          9.390   1.000   S
02         18.910   1.000   S
# 2022  9  8  8 33 50.04  26.8258  103.0230    2.52  0.00  3.99  9.84  0.73        62
08          0.820   1.000   P
08          2.480   1.000   S
10          5.560   1.000   P
04          7.980   1.000   P
04         10.660   1.000   S
02         13.840   1.000   S
# 2022  9  8 14 45 36.45  26.9642  102.7947   20.48  0.00  2.38  3.40  0.41        63
04          4.170   1.000   P
04          5.930   1.000   S
01          3.670   1.000   P
01          7.300   1.000   S
03          7.220   1.000   P
03         10.790   1.000   S
# 2022  9  8 15 18 22.94  27.0927  102.9063    2.49  0.00  0.00  0.00  3.21        64
06          1.530   1.000   P
06          3.780   1.000   S
03          2.830   1.000   P
03          5.420   1.000   S
08          8.120   1.000   P
# 2022  9  8 15 41 41.52  26.3810  102.9763    7.24  0.00  3.94  5.18  0.22        65
10          3.970   1.000   P
10          6.950   1.000   S
08         12.200   1.000   S
01         10.400   1.000   P
04         22.660   1.000   S
# 2022  9  8 16  7 51.41  27.1622  102.8203    2.50  0.00  5.15  8.92  0.69        66
03          2.540   1.000   P
03          4.720   1.000   S
04          3.650   1.000   P
04          5.100   1.000   S
01          3.610   1.000   P
01          8.590   1.000   S
10         22.370   1.000   S
# 2022  9  9  8 36 36.35  27.0857  102.9070    8.18  0.00  1.70  9.44  0.31        67
06          3.640   1.000   P
06          3.640   1.000   S
01          3.640   1.000   P
04          3.640   1.000   P
02          3.640   1.000   P
# 2022  9  9 16  4 14.75  27.0372  102.5378    2.51  0.00  8.91  5.53  0.97        68
04          3.190   1.000   P
04          3.650   1.000   S
01          6.790   1.000   P
03         14.550   1.000   S
07         19.840   1.000   S
# 2022  9 10  8 25 12.40  26.8622  102.9050    2.49  0.00  0.00  0.00  2.76        69
01          0.950   1.000   S
06          2.380   1.000   P
06          3.840   1.000   S
08          2.140   1.000   P
08          4.720   1.000   S
# 2022  9 10 11 41  3.86  26.6430  103.0372    2.46  0.00  0.00  0.00  2.14        70
10          1.760   1.000   P
10          2.000   1.000   S
08          2.160   1.000   P
08          4.090   1.000   S
01          6.220   1.000   P
# 2022  9 10 15 12 23.02  26.7355  102.8155    2.51  0.00  4.32  7.57  0.63        71
08          3.340   1.000   P
08          5.640   1.000   S
01          3.740   1.000   P
01          6.580   1.000   S
03         19.180   1.000   S
# 2022  9 10 16 25 49.72  26.5140  103.0833    2.50  0.00  9.59  7.75  0.82        72
10          0.540   1.000   P
10          1.920   1.000   S
07          7.720   1.000   P
07         10.150   1.000   S
02         25.220   1.000   S
# 2022  9 10 20  9 56.89  26.7107  103.0820    2.50  0.00  4.19  8.02  0.53        73
07          3.100   1.000   P
07          3.100   1.000   S
10          3.100   1.000   P
04         15.070   1.000   S
02         18.620   1.000   S
# 2022  9 10 21 43 20.09  26.7618  102.9505    2.51  0.00  8.83  5.93  0.71        74
01          3.330   1.000   P
01          4.090   1.000   S
02         16.370   1.000   S
03         10.020   1.000   P
# 2022  9 10 23  1 24.86  26.8295  103.2303    2.57  0.00  5.35  7.71  0.74        75
07          2.370   1.000   S
10          5.640   1.000   P
10         10.540   1.000   S
02          8.280   1.000   P
03         10.870   1.000   P
# 2022  9 11 19 18 34.40  26.8375  102.9670   18.76  0.00  3.71  4.83  0.41        76
06          4.550   1.000   P
06          5.930   1.000   S
07          3.930   1.000   P
07          7.320   1.000   S
02         14.010   1.000   S
# 2022  9 12 14  2 34.59  26.9818  102.9027    3.43  0.00  5.53  2.48  0.28        77
01          1.120   1.000   P
01          2.810   1.000   S
04          3.730   1.000   P
04          5.810   1.000   S
10          9.190   1.000   P
# 2022  9 12 15 20 33.78  26.9650  102.9128    3.74  0.00  3.76  1.40  0.69        78
06          1.960   1.000   S
04          4.090   1.000   P
02          6.270   1.000   P
02          9.800   1.000   S
10         14.440   1.000   S
# 2022  9 12 16 23 49.36  27.0373  102.9342    3.58  0.00  6.55  2.68  0.18        79
01          2.230   1.000   P
01          4.480   1.000   S
02          4.670   1.000   P
02          7.470   1.000   S
08          5.870   1.000   P
# 2022  9 12 17 33 19.33  27.2422  102.9595    1.74  0.00  0.00  0.00  0.29        80
03          0.660   1.000   P
03          0.660   1.000   S
02          0.660   1.000   S
02          0.660   1.000   P
# 2022  9 12 18 53 45.40  26.7937  103.0565   10.29  0.00  1.82  2.91  0.12        81
08          2.020   1.000   P
08          3.240   1.000   S
07          2.690   1.000   P
07          3.560   1.000   S
04         12.740   1.000   S
# 2022  9 12 19  3 14.40  27.0088  102.9618   18.26  0.00  3.43  4.12  0.29        82
01          5.590   1.000   S
07          5.590   1.000   P
02          5.590   1.000   P
03          5.590   1.000   P
08          5.590   1.000   P
# 2022  9 12 22  0 25.52  27.0642  102.8373    4.85  0.00  0.45  0.68  0.09        83
04          2.360   1.000   P
04          3.690   1.000   S
06          2.660   1.000   P
06          4.320   1.000   S
02          7.920   1.000   S
07         12.020   1.000   S
