# 2022 10 19 14 43 37.28  27.0812  103.2527    4.16  0.00  3.80  7.00  0.13       251
07          5.290   1.000   P
07          9.120   1.000   S
01          7.040   1.000   P
01         11.220   1.000   S
10         18.300   1.000   S
# 2022 10 19 21 34 32.92  26.6843  103.1168    2.49  0.00  0.00  0.00  5.24       252
07          5.630   1.000   S
01          6.520   1.000   P
01          8.800   1.000   S
03         15.050   1.000   P
# 2022 10 20  3 33 30.13  26.7752  103.1380   19.26  0.00  2.17  1.69  0.27       253
07          3.780   1.000   P
07          4.970   1.000   S
04         15.310   1.000   S
02          9.560   1.000   P
02         16.740   1.000   S
# 2022 10 20  5 49  4.55  26.7390  103.2745    2.48  0.00  0.00  0.00  2.99       254
07          1.760   1.000   P
10          5.260   1.000   P
06          8.900   1.000   P
02         10.680   1.000   P
# 2022 10 20  7 17 39.94  27.2755  102.9892    2.51  0.00  8.37  9.45  0.86       255
03          0.630   1.000   P
03          1.680   1.000   S
06          9.390   1.000   S
04         12.020   1.000   S
10         15.150   1.000   P
# 2022 10 20  7 26 54.77  26.7028  103.0720   20.40  0.00  6.89  3.23  0.54       256
08          4.470   1.000   P
08          5.530   1.000   S
07          3.810   1.000   P
07          7.330   1.000   S
01          6.620   1.000   P
04          8.850   1.000   P
# 2022 10 20  9 54 18.63  27.2733  102.8762    2.50  0.00  3.96  3.21  0.26       257
03          0.940   1.000   P
03          1.130   1.000   S
01          7.170   1.000   P
07         16.660   1.000   S
08         10.630   1.000   P
# 2022 10 20 13 36  8.59  26.8160  103.1963    2.51  0.00  9.13  4.15  0.79       258
07          0.700   1.000   P
07          1.230   1.000   S
01          9.920   1.000   S
10          6.910   1.000   P
10          9.170   1.000   S
# 2022 10 20 16 44 18.03  27.2897  102.8742    2.50  0.00  0.00  0.00  6.51       259
03          0.220   1.000   P
03          1.280   1.000   S
04          5.040   1.000   P
04          9.710   1.000   S
06          7.650   1.000   P
06         10.800   1.000   S
# 2022 10 20 17 24 47.68  26.9345  102.9895    2.49  0.00  0.00  0.00  5.14       260
01          0.010   1.000   P
01          1.340   1.000   S
04          5.560   1.000   P
04          9.450   1.000   S
03          7.790   1.000   P
03          9.940   1.000   S
10          7.730   1.000   P
# 2022 10 20 17 33 26.29  26.6963  103.0822   14.34  0.00  4.89  4.77  0.45       261
08          2.970   1.000   P
08          4.330   1.000   S
07          6.730   1.000   S
04         15.860   1.000   S
02         17.760   1.000   S
# 2022 10 21  0 13 47.34  27.2962  103.0818    2.50  0.00  6.44  5.35  0.80       262
02          0.760   1.000   P
02          3.000   1.000   S
04          9.500   1.000   P
04         13.570   1.000   S
10         24.310   1.000   S
# 2022 10 21  4 12 23.98  27.1752  103.1520    2.49  0.00  0.00  0.00  3.20       263
02          2.850   1.000   P
02          3.580   1.000   S
01         10.600   1.000   S
07          6.090   1.000   P
04          9.340   1.000   P
# 2022 10 21 14  8 32.97  26.6327  103.0968    2.43  0.00  0.00  0.00  2.42       264
10          1.560   1.000   P
10          2.350   1.000   S
07          4.190   1.000   P
07          6.370   1.000   S
02         13.510   1.000   P
# 2022 10 22  4 14  4.73  26.7630  102.9850   14.42  0.00  1.85  2.19  0.23       265
08          2.150   1.000   P
08          3.590   1.000   S
07          4.290   1.000   P
07          5.950   1.000   S
03         16.260   1.000   S
# 2022 10 22 11 46 54.66  26.9768  102.9225    5.17  0.00  1.64  2.94  0.41       266
06          0.950   1.000   P
04          4.140   1.000   P
04          6.270   1.000   S
07          5.110   1.000   P
03          9.280   1.000   S
# 2022 10 22 16 14 12.07  26.7563  102.9935    4.91  0.00  2.21  9.08  0.47       267
07          4.970   1.000   S
01          5.110   1.000   S
10          6.300   1.000   S
02         10.080   1.000   P
02         15.670   1.000   S
03          9.890   1.000   P
# 2022 10 22 22 53 17.66  26.8640  102.9657    2.22  0.00  0.00  0.00  0.88       268
08          2.330   1.000   P
08          2.330   1.000   S
06          2.330   1.000   P
06          2.330   1.000   S
# 2022 10 23  8 13 16.26  26.8493  102.9468    8.32  0.00  3.06  5.62  0.41       269
08          3.730   1.000   S
06          3.730   1.000   S
06          3.730   1.000   P
07          3.730   1.000   P
10          6.000   1.000   P
# 2022 10 23  9  8  0.47  26.9912  102.9177    2.49  0.00  0.00  0.00  4.22       270
04          3.830   1.000   P
04          5.390   1.000   S
08          6.070   1.000   P
10         13.610   1.000   S
# 2022 10 23  9 47 27.29  27.0572  102.5825    2.48  0.00  0.00  0.00  3.41       271
04          2.220   1.000   P
04          3.960   1.000   S
06          7.560   1.000   P
06         11.410   1.000   S
10         12.570   1.000   P
# 2022 10 23 13  7 55.81  26.9238  103.1205    2.48  0.00  0.00  0.00  4.11       272
06          3.550   1.000   P
06          5.930   1.000   S
10          6.890   1.000   P
10         13.070   1.000   S
04          8.030   1.000   P
# 2022 10 24  4 12 30.34  26.8940  102.8677    2.78  0.00  4.22  3.17  0.17       273
01          0.910   1.000   P
06          2.040   1.000   P
06          3.340   1.000   S
08          6.480   1.000   S
10         12.570   1.000   S
# 2022 10 24  4 43 16.03  26.8988  102.9785    4.68  0.00  4.81  6.93  1.30       274
06          3.960   1.000   S
08          3.960   1.000   P
08          3.960   1.000   S
07          3.960   1.000   S
07          3.960   1.000   P
# 2022 10 24  9 34 31.36  26.7667  103.0858    5.03  0.00  2.54  4.71  0.30       275
07          1.480   1.000   P
07          3.360   1.000   S
10          4.390   1.000   P
10          6.850   1.000   S
02          9.680   1.000   P
# 2022 10 26 19 19 54.83  27.0212  102.9818   14.70  0.00  0.60  1.56  0.06       276
01          5.160   1.000   S
07          5.160   1.000   P
04          5.160   1.000   P
03          5.160   1.000   P
08          9.190   1.000   S
# 2022 10 27  4 51 34.22  27.0675  102.9345    2.36  0.00  0.00  0.00  3.43       277
01          2.420   1.000   P
01          4.090   1.000   S
03          5.310   1.000   P
03          6.190   1.000   S
02          2.470   1.000   P
02          7.220   1.000   S
10         12.110   1.000   P
# 2022 10 27 22 51  0.21  26.7793  103.0530    3.38  0.00  2.62  1.61  0.29       278
08          0.650   1.000   P
08          2.530   1.000   S
01          6.490   1.000   S
10          4.600   1.000   P
10          7.470   1.000   S
# 2022 10 28  9 45 39.82  26.9472  102.9773    2.50  0.00  0.00  0.00  3.62       279
06          1.420   1.000   S
08          4.200   1.000   P
04          6.940   1.000   P
04          7.940   1.000   S
10          7.650   1.000   P
# 2022 10 28 14 45 24.14  26.6158  103.1598    3.57  0.00  2.81  5.15  0.32       280
10          2.040   1.000   P
10          4.220   1.000   S
08          4.620   1.000   P
08          6.680   1.000   S
07          7.740   1.000   S
# 2022 10 28 19 13 18.82  26.8268  103.0230    2.00  0.00  0.00  0.00  0.64       281
08          1.170   1.000   P
07          1.170   1.000   P
06          2.770   1.000   P
03          9.340   1.000   P
# 2022 10 28 21 33 18.60  27.3203  102.9650    2.00  0.00  0.00  0.00  0.72       282
03          1.390   1.000   P
03          1.390   1.000   S
02          1.390   1.000   S
02          1.390   1.000   P
# 2022 10 29  4 17 17.24  26.5845  103.1260    4.64  0.00  5.19  8.48  0.38       283
10          1.140   1.000   P
10          2.940   1.000   S
07          5.620   1.000   P
07          8.260   1.000   S
03         22.600   1.000   S
# 2022 10 29  4 53 51.97  26.7805  102.9623    2.51  0.00  3.19  4.74  0.55       284
01          4.620   1.000   S
07          3.680   1.000   P
07          5.610   1.000   S
04          7.450   1.000   P
02          8.850   1.000   P
# 2022 10 29 15 53 35.13  26.9278  103.0447    4.39  0.00  4.81  8.55  1.27       285
01          1.090   1.000   P
01          5.450   1.000   S
02          8.610   1.000   P
02          9.600   1.000   S
10         12.130   1.000   S
# 2022 10 29 16 35 13.71  27.0680  102.8757    5.66  0.00  8.58  9.79  0.48       286
06          1.930   1.000   P
06          3.580   1.000   S
03          4.340   1.000   P
03          5.310   1.000   S
08         10.870   1.000   S
# 2022 10 29 19 29  9.69  27.0655  102.7177    5.00  0.00  9.92  6.18  0.71       287
04          0.670   1.000   P
04          0.940   1.000   S
01          8.150   1.000   S
03          6.370   1.000   P
03          8.290   1.000   S
# 2022 10 30  0 19 59.96  26.9810  102.8038    2.48  0.00  0.00  0.00  9.00       288
06          0.030   1.000   P
02         12.430   1.000   S
07         11.640   1.000   S
10         10.390   1.000   P
10         15.480   1.000   S
# 2022 10 30  2 14 21.43  27.1037  102.6060   14.63  0.00  4.81  3.77  0.53       289
04          2.960   1.000   P
04          5.770   1.000   S
02         12.770   1.000   S
08         10.290   1.000   P
08         15.370   1.000   S
# 2022 10 30  2 33 18.28  27.3212  102.9723    2.48  0.00  0.00  0.00  4.84       290
02          1.710   1.000   P
02          1.710   1.000   S
03          1.710   1.000   S
03          1.710   1.000   P
01         15.470   1.000   S
# 2022 10 30  5  3 15.97  27.2207  102.7920    2.69  0.00  2.70  3.66  0.17       291
03          4.020   1.000   S
02          4.020   1.000   P
04          4.020   1.000   P
10         13.510   1.000   P
10         23.210   1.000   S
# 2022 10 30 17 14 15.77  27.1707  102.8965    4.87  0.00  3.62  1.03  0.10       292
03          1.950   1.000   P
03          3.030   1.000   S
01          5.220   1.000   P
01          8.350   1.000   S
08         14.220   1.000   S
# 2022 10 30 21  5 21.27  27.2818  102.7658   21.41  0.00  3.49  3.45  0.20       293
03          4.840   1.000   P
03          7.010   1.000   S
02          5.170   1.000   P
02          8.890   1.000   S
07         18.510   1.000   S
# 2022 10 30 21 30 53.82  26.8687  102.8775    4.12  0.00  1.82  2.38  0.41       294
01          2.490   1.000   S
08          3.170   1.000   P
04          5.300   1.000   P
04          6.640   1.000   S
03         13.240   1.000   S
# 2022 10 31 15 53 11.13  26.9920  102.8995    7.97  0.00  0.67  1.18  0.00       295
06          1.590   1.000   P
03          8.860   1.000   S
07          8.860   1.000   S
10          8.860   1.000   P
# 2022 11  1  0 13 34.58  26.8995  102.7867    4.45  0.00  0.77  1.24  0.13       296
01          2.710   1.000   P
01          4.300   1.000   S
07         11.140   1.000   S
03         12.680   1.000   S
10          8.190   1.000   P
# 2022 11  1 13 44 12.28  26.7843  103.0382    4.19  0.00  5.04  8.23  1.31       297
07          0.320   1.000   P
07          5.100   1.000   S
01          6.380   1.000   S
10          5.850   1.000   P
10          7.020   1.000   S
# 2022 11  2  1  3 32.41  27.0887  102.6025    2.50  0.00  0.00  0.00  8.08       298
04          2.410   1.000   P
04          4.310   1.000   S
01         11.500   1.000   S
02         13.290   1.000   S
07         10.920   1.000   P
# 2022 11  2  7  3 16.35  26.8710  102.8432    7.38  0.00  3.07  8.24  0.86       299
06          3.640   1.000   S
06          3.640   1.000   P
08          3.640   1.000   P
08          3.640   1.000   S
04          3.640   1.000   P
02         10.000   1.000   P
02         13.590   1.000   S
# 2022 11  3 23 13 53.92  26.8575  102.8758    4.31  0.00  9.93  8.69  0.45       300
01          1.720   1.000   P
04          5.040   1.000   P
04          7.320   1.000   S
03          7.120   1.000   P
03         14.310   1.000   S
02         13.480   1.000   S
# 2022 11  4  0 23 28.08  26.8737  103.1733    7.23  0.00  3.01  1.08  0.16       301
07          1.380   1.000   P
07          2.290   1.000   S
08          4.420   1.000   P
08          6.720   1.000   S
10          6.590   1.000   P
# 2022 11  4  3 13 39.85  26.6507  103.0558   16.26  0.00  5.45  2.78  0.49       302
08          3.110   1.000   P
08          5.910   1.000   S
04         16.090   1.000   S
02         12.260   1.000   P
02         18.870   1.000   S
# 2022 11  4  9 13 18.96  26.9535  102.8490    2.45  0.00  0.00  0.00  1.02       303
06          1.030   1.000   P
01          1.030   1.000   S
01          1.030   1.000   P
04          2.770   1.000   P
# 2022 11  4 22 37 23.49  26.8222  103.2142   24.59  0.00  3.78  2.67  0.38       304
07          3.950   1.000   P
07          7.030   1.000   S
08          6.210   1.000   P
08          8.590   1.000   S
04         16.830   1.000   S
# 2022 11  5  5 13 51.03  26.5272  103.1555    2.49  0.00  0.00  0.00  7.77       305
10          1.410   1.000   P
10          2.670   1.000   S
08          6.770   1.000   P
07          4.550   1.000   P
03         24.850   1.000   S
# 2022 11  5  5 53  2.30  26.7648  102.8328    2.51  0.00  5.63  8.59  0.72       306
08          3.110   1.000   P
08          5.020   1.000   S
01          2.760   1.000   P
01          5.300   1.000   S
03         17.690   1.000   S
# 2022 11  5 16 14  8.68  27.0173  102.9662    2.47  0.00  0.00  0.00  4.00       307
06          0.730   1.000   P
06          2.280   1.000   S
01          3.980   1.000   S
07          5.440   1.000   P
07          7.880   1.000   S
# 2022 11  6  5 43 40.60  26.9310  103.0890   17.37  0.00  3.85  2.50  0.36       308
07          5.480   1.000   S
01          6.640   1.000   S
08          3.950   1.000   P
08          7.580   1.000   S
10          7.880   1.000   P
# 2022 11  6 15 13 47.48  26.8662  102.7540    2.72  0.00  2.97  4.55  0.44       309
01          3.530   1.000   P
01          4.510   1.000   S
04          3.500   1.000   P
04          5.650   1.000   S
02         15.490   1.000   S
# 2022 11  6 22  7 14.99  26.8343  103.3073    2.51  0.00  4.45  2.79  0.39       310
07          3.070   1.000   P
07          4.330   1.000   S
08         10.130   1.000   S
02         16.620   1.000   S
04         19.070   1.000   S
# 2022 11  7  1 48  5.34  27.0645  102.6688    2.36  0.00  0.00  0.00  5.26       311
02          6.230   1.000   P
02         11.720   1.000   S
08          6.460   1.000   P
10         12.480   1.000   P
# 2022 11  7 14 25 25.76  26.8397  103.2367   19.32  0.00  4.62  1.88  0.34       312
07          3.280   1.000   P
07          5.930   1.000   S
08          6.000   1.000   P
08          8.630   1.000   S
04         10.010   1.000   P
# 2022 11  7 14 44 26.47  27.2190  103.1328   17.50  0.00  2.94  5.89  0.39       313
02          4.550   1.000   P
02          5.450   1.000   S
06          6.300   1.000   P
06         11.300   1.000   S
04         13.850   1.000   S
# 2022 11  8  7 57 41.60  27.0688  102.7492    2.46  0.00  0.00  0.00  2.41       314
04          1.280   1.000   S
01          5.250   1.000   P
01          6.810   1.000   S
10         11.540   1.000   P
# 2022 11  8  8 20 57.20  27.0140  102.8557    3.07  0.00  1.64  7.90  0.41       315
01          1.660   1.000   P
01          4.280   1.000   S
04          4.300   1.000   S
02          5.540   1.000   P
08          6.330   1.000   P
# 2022 11  8 18 33 56.47  26.6840  102.8480   25.05  0.00  1.01  1.75  0.06       316
01          6.360   1.000   P
01         10.110   1.000   S
04          8.110   1.000   P
04         13.530   1.000   S
02         19.590   1.000   S
# 2022 11  8 20  4  2.92  26.9028  102.7375   10.33  0.00  1.98  5.93  0.03       317
04          3.220   1.000   P
04          4.940   1.000   S
01          3.790   1.000   P
10          8.690   1.000   P
10         14.530   1.000   S
# 2022 11  9 19  3 38.35  27.0625  102.8943    2.51  0.00  2.57  2.12  0.24       318
01          2.830   1.000   P
01          4.590   1.000   S
04          5.250   1.000   S
07         10.670   1.000   S
10         17.610   1.000   S
# 2022 11  9 19 56 39.07  26.9463  102.8848    2.00  0.00  0.00  0.00  0.50       319
06          0.920   1.000   S
06          0.920   1.000   P
01          0.920   1.000   S
01          0.920   1.000   P
# 2022 11 10  4 43 41.05  27.2993  102.9338    2.49  0.00  0.00  0.00  9.38       320
02          1.140   1.000   S
02          1.160   1.000   P
01          8.880   1.000   P
01         11.930   1.000   S
07          9.000   1.000   P
07         18.290   1.000   S
# 2022 11 12 12 22 33.69  27.0502  102.7993   23.44  0.00  5.97  6.43  0.71       321
04          4.730   1.000   P
04          6.140   1.000   S
07          6.140   1.000   P
07         13.910   1.000   S
10         18.170   1.000   S
# 2022 11 15 17 23 13.47  26.7648  102.9430    7.52  0.00  2.91  5.82  0.83       322
08          2.140   1.000   S
07          6.520   1.000   S
10          6.520   1.000   P
10          6.520   1.000   S
04          6.520   1.000   P
# 2022 11 16  3 19 23.74  26.6550  103.0597    4.76  0.00  3.59  1.99  0.36       323
10          1.970   1.000   P
10          3.300   1.000   S
04         10.980   1.000   P
04         15.810   1.000   S
02         11.600   1.000   P
# 2022 11 17 13 56 38.77  27.0340  102.9058    2.51  0.00  8.92  7.52  0.74       324
06          1.220   1.000   S
06          1.220   1.000   P
02          5.320   1.000   P
02          7.420   1.000   S
07         10.390   1.000   S
# 2022 11 19 13 30 48.16  26.8875  102.6968    4.82  0.00  1.92  4.18  0.38       325
04          3.870   1.000   P
04          4.460   1.000   S
06          4.260   1.000   P
06          7.570   1.000   S
02         15.320   1.000   S
10         15.120   1.000   S
# 2022 11 21  1  6 49.86  27.0507  102.9892    4.69  0.00  2.30  3.12  0.43       326
06          2.270   1.000   P
06          3.840   1.000   S
02          3.600   1.000   P
02          7.960   1.000   S
07          5.210   1.000   P
# 2022 11 24  2 19 57.09  26.7255  103.0850    5.31  0.00  2.24  6.75  0.51       327
08          2.900   1.000   S
08          2.900   1.000   P
07          2.900   1.000   P
07          2.900   1.000   S
10          2.900   1.000   P
04         15.610   1.000   S
# 2022 11 26 18 14 58.34  26.7993  103.2135    2.50  0.00  0.00  0.00  6.92       328
07          0.420   1.000   P
07          2.070   1.000   S
10          6.740   1.000   P
10          8.840   1.000   S
04         18.200   1.000   S
# 2022 11 28 18 55 11.07  27.1223  102.8978   10.94  0.00  2.79  3.46  0.22       329
02          3.150   1.000   P
02          5.910   1.000   S
06          3.790   1.000   P
06          5.610   1.000   S
07          7.120   1.000   P
# 2022 11 29 12 48 29.40  26.9973  102.5362    2.51  0.00  5.37  5.02  0.81       330
04          2.810   1.000   P
04          5.030   1.000   S
02         10.020   1.000   P
02         17.470   1.000   S
07         19.700   1.000   S
# 2022 11 30 11 24 24.56  26.5300  102.9832    4.93  0.00  8.46  6.96  0.82       331
10          1.420   1.000   P
10          2.140   1.000   S
07          9.130   1.000   P
07         11.080   1.000   S
04         10.620   1.000   P
# 2022 11 30 21 45 22.95  26.9292  102.8872    2.48  0.00  0.00  0.00  4.10       332
04          4.380   1.000   P
04          5.580   1.000   S
08          0.850   1.000   P
07          6.380   1.000   P
07          8.200   1.000   S
# 2022 11 30 22 33 14.79  26.7443  102.9242   18.86  0.00  0.84  1.22  0.00       333
08          5.200   1.000   S
07          5.200   1.000   P
10          5.200   1.000   P
04          7.260   1.000   P
# 2022 12  1 20 21 56.59  27.3630  102.8982    2.36  0.00  0.00  0.00  6.94       334
02          2.380   1.000   P
02          4.190   1.000   S
06          6.390   1.000   P
07         20.210   1.000   S
08         13.610   1.000   P
08         19.490   1.000   S
10         15.080   1.000   P
