# 2023  1  3 10 35 15.42  27.1267  102.7830   14.67  0.00  3.51  4.60  0.38       402
05          4.470   1.000   P
05          6.020   1.000   S
02          4.570   1.000   P
02          8.490   1.000   S
10         20.020   1.000   S
# 2023  1  3 12  7 28.77  26.6283  102.9257    3.88  0.00  1.77  2.93  0.37       403
10          2.720   1.000   P
10          4.690   1.000   S
09          4.940   1.000   S
04         16.360   1.000   S
02         20.510   1.000   S
# 2023  1  3 12 47  7.28  27.0422  102.9967   19.04  0.00  3.06  5.77  0.36       404
05          4.580   1.000   P
05          6.140   1.000   S
02          5.350   1.000   P
02          8.340   1.000   S
03          4.830   1.000   P
07          5.300   1.000   P
# 2023  1  3 13 53 34.71  26.3658  102.8000   28.28  0.00  3.50  5.61  0.42       405
10          7.110   1.000   P
10         12.530   1.000   S
09          8.990   1.000   P
09         13.180   1.000   S
02         29.520   1.000   S
# 2023  1  3 15  4 16.12  27.1835  102.9047    3.93  0.00  1.90  2.81  0.41       406
03          1.030   1.000   P
03          2.520   1.000   S
02          2.000   1.000   P
02          4.940   1.000   S
04          4.610   1.000   P
04          7.460   1.000   S
10         20.620   1.000   S
# 2023  1  3 16 18 35.11  27.2008  103.1405   16.98  0.00  2.60  5.16  0.36       407
02          3.580   1.000   P
02          6.370   1.000   S
05          7.270   1.000   P
05         10.790   1.000   S
01         11.970   1.000   S
07         12.590   1.000   S
10         20.600   1.000   S
# 2023  1  3 16 24 15.37  27.3160  102.7887    2.51  0.00  6.48  6.54  0.58       408
03          2.900   1.000   P
03          3.610   1.000   S
05          6.570   1.000   P
05         11.010   1.000   S
07         19.610   1.000   S
# 2023  1  3 17  5 17.41  26.4858  102.9810    6.21  0.00  1.52  2.37  0.34       409
10          2.740   1.000   P
10          3.400   1.000   S
08          5.180   1.000   P
08          9.010   1.000   S
09          5.560   1.000   P
09         10.030   1.000   S
07          7.300   1.000   P
07         12.570   1.000   S
01         14.670   1.000   S
05         17.220   1.000   S
02         15.200   1.000   P
# 2023  1  3 17  7 56.39  27.1232  102.7385    6.23  0.00  0.76  1.36  0.06       410
04          2.180   1.000   P
04          3.170   1.000   S
06          4.660   1.000   P
06          7.860   1.000   S
09         13.520   1.000   S
# 2023  1  3 17 44  2.72  26.9147  102.8562    2.49  0.00  0.00  0.00  3.95       411
05          1.420   1.000   S
06          0.580   1.000   P
06          3.080   1.000   S
04          4.780   1.000   P
04          6.140   1.000   S
09          2.910   1.000   P
09          7.980   1.000   S
07         10.870   1.000   S
# 2023  1  3 18 23 18.68  27.3072  102.9683    2.00  0.00  0.00  0.00  0.42       412
02          1.310   1.000   S
02          1.310   1.000   P
03          1.310   1.000   S
03          1.310   1.000   P
05          7.720   1.000   P
# 2023  1  3 18 37 22.23  26.9187  103.0112    2.49  0.00  0.00  0.00  2.21       413
01          0.650   1.000   P
01          2.490   1.000   S
06          2.600   1.000   S
05          3.330   1.000   P
05          4.700   1.000   S
# 2023  1  3 19  7 29.17  26.5197  103.0608   17.52  0.00  1.56  1.50  0.26       414
10          3.400   1.000   P
10          4.270   1.000   S
09          6.550   1.000   P
09         11.150   1.000   S
07          7.100   1.000   P
07         11.170   1.000   S
02         13.800   1.000   P
02         24.180   1.000   S
# 2023  1  3 19 38 26.34  27.0483  102.9343    2.49  0.00  0.00  0.00  4.34       415
06          0.630   1.000   P
06          3.220   1.000   S
03          5.580   1.000   P
03          7.340   1.000   S
02          3.180   1.000   P
02          6.740   1.000   S
07         10.300   1.000   S
# 2023  1  3 19 54  9.63  27.1112  102.9000    2.51  0.00  2.43  2.87  0.32       416
05          2.380   1.000   P
05          4.190   1.000   S
03          2.760   1.000   P
03          5.310   1.000   S
02          3.110   1.000   P
02          5.690   1.000   S
01          7.030   1.000   S
09         14.290   1.000   S
# 2023  1  3 20 37 57.32  27.0378  102.7732    4.09  0.00  5.54  4.56  0.33       417
06          2.840   1.000   P
06          5.500   1.000   S
01          4.050   1.000   P
01          5.580   1.000   S
02          5.930   1.000   P
02          9.720   1.000   S
# 2023  1  3 21  5  4.42  26.9498  102.9810    3.28  0.00  3.47  5.23  0.39       418
06          1.440   1.000   P
01          0.530   1.000   P
01          2.440   1.000   S
08          4.000   1.000   P
08          6.840   1.000   S
09          6.070   1.000   P
# 2023  1  3 22 12 14.38  26.5258  103.0208    2.50  0.00  0.00  0.00  5.30       419
10          0.180   1.000   P
10          1.530   1.000   S
08          6.460   1.000   P
08          8.080   1.000   S
09          5.900   1.000   P
09          9.180   1.000   S
# 2023  1  3 22 23 12.74  26.9732  102.7970   26.18  0.00  2.53  1.27  0.17       420
05          7.250   1.000   S
04          7.250   1.000   S
08          7.250   1.000   P
03          7.250   1.000   P
07          7.250   1.000   P
# 2023  1  3 23 15 53.92  27.0360  102.8358   34.69  0.00  2.78  3.13  0.46       421
05          5.460   1.000   P
05          9.100   1.000   S
01          7.010   1.000   P
03          6.830   1.000   P
02         13.180   1.000   S
09          8.360   1.000   P
09         13.800   1.000   S
07         13.560   1.000   S
# 2023  1  4  0 55 29.54  27.2127  102.9368    4.95  0.00  1.97  2.94  0.36       422
02          1.690   1.000   P
02          1.960   1.000   S
04          8.620   1.000   S
01          6.480   1.000   P
01          9.620   1.000   S
# 2023  1  4  2 10 41.72  27.3992  102.8725    3.58  0.00  2.01  1.78  0.08       423
03          3.120   1.000   P
03          5.510   1.000   S
02          4.040   1.000   P
02          6.580   1.000   S
09         13.330   1.000   P
# 2023  1  4  2 22 32.75  27.1032  102.8350   18.24  0.00  1.97  2.55  0.23       424
05          4.170   1.000   P
05          6.090   1.000   S
03          4.120   1.000   P
03          7.070   1.000   S
01          7.690   1.000   S
02          5.260   1.000   P
02          8.180   1.000   S
# 2023  1  4  3 34 45.29  26.5203  102.9100    4.91  0.00  7.65  6.84  0.47       425
10          3.010   1.000   P
10          3.790   1.000   S
09          4.670   1.000   P
09          7.220   1.000   S
03         24.230   1.000   S
# 2023  1  4  4 43 29.96  26.8097  103.2092    2.51  0.00  5.27  4.37  0.87       426
07          1.610   1.000   S
08          4.440   1.000   P
08          6.400   1.000   S
01          6.320   1.000   P
01         10.050   1.000   S
# 2023  1  4  9 46 53.57  26.9798  102.7277   17.40  0.00  3.64  3.76  0.26       427
04          3.330   1.000   P
04          4.500   1.000   S
06          4.780   1.000   P
07          7.560   1.000   P
10         16.890   1.000   S
# 2023  1  4 10  2 29.76  27.1640  102.9847    5.64  0.00  7.45  7.01  0.44       428
03          2.570   1.000   P
03          3.510   1.000   S
01          3.940   1.000   P
01          8.690   1.000   S
09          9.780   1.000   P
# 2023  1  4 14 50 16.33  26.6825  102.9223    4.86  0.00  1.61  3.49  0.55       429
09          2.290   1.000   P
09          4.330   1.000   S
10          3.590   1.000   P
10          5.330   1.000   S
01          5.700   1.000   P
01          7.220   1.000   S
03         19.570   1.000   S
# 2023  1  4 15 35 17.43  26.7112  103.0705    2.48  0.00  0.00  0.00  2.70       430
08          0.010   1.000   P
08          1.720   1.000   S
07          3.600   1.000   P
07          4.730   1.000   S
04         12.580   1.000   P
# 2023  1  4 16 46 19.56  26.8975  102.6988   11.56  0.00  2.13  5.79  0.26       431
05          4.060   1.000   P
05          5.560   1.000   S
09          4.430   1.000   P
09          6.890   1.000   S
01          4.440   1.000   P
01          7.620   1.000   S
06          4.790   1.000   P
06          7.920   1.000   S
08          5.870   1.000   P
# 2023  1  4 17  7  6.14  26.6953  102.9627    3.28  0.00  0.55  1.30  0.22       432
08          1.230   1.000   P
08          2.720   1.000   S
09          3.220   1.000   P
09          5.400   1.000   S
10          3.040   1.000   P
10          5.830   1.000   S
06          6.170   1.000   P
06          9.420   1.000   S
# 2023  1  4 18 32 45.26  27.1678  102.8970   16.41  0.00  1.39  1.95  0.31       433
03          3.240   1.000   P
03          4.970   1.000   S
02          3.700   1.000   P
05          4.030   1.000   P
05          7.090   1.000   S
06          4.980   1.000   P
01          5.670   1.000   P
01         10.040   1.000   S
07          8.250   1.000   P
07         12.720   1.000   S
08          8.470   1.000   P
08         14.580   1.000   S
09          9.050   1.000   P
09         15.080   1.000   S
10         12.110   1.000   P
# 2023  1  4 18 55 42.77  27.1418  102.8790    7.16  0.00  3.24  6.27  0.81       434
03          1.940   1.000   P
03          3.470   1.000   S
02          4.740   1.000   P
02          4.890   1.000   S
05          2.810   1.000   P
05          5.000   1.000   S
04          4.790   1.000   P
04          5.510   1.000   S
06          3.710   1.000   P
08          9.110   1.000   P
09          7.840   1.000   P
09         14.050   1.000   S
# 2023  1  4 19 27 10.91  26.8417  102.9605   15.35  0.00  1.07  1.80  0.38       435
01          2.900   1.000   P
01          4.440   1.000   S
08          3.030   1.000   P
08          5.290   1.000   S
06          2.860   1.000   P
06          6.250   1.000   S
07          3.930   1.000   P
07          6.150   1.000   S
05          3.660   1.000   P
05          6.590   1.000   S
09          4.590   1.000   P
09          7.190   1.000   S
02          8.370   1.000   P
02         14.020   1.000   S
03          8.890   1.000   P
03         13.750   1.000   S
# 2023  1  4 20 15 26.28  26.8568  103.2153    4.20  0.00  3.82  2.98  0.74       436
07          0.850   1.000   P
08          7.910   1.000   S
06          6.460   1.000   P
06          9.740   1.000   S
10          7.920   1.000   P
10         10.660   1.000   S
05          6.140   1.000   P
05         10.820   1.000   S
09         12.670   1.000   S
04         16.180   1.000   S
# 2023  1  4 22  5 42.37  27.1432  102.9217    4.85  0.00  5.14  2.33  0.22       437
02          3.010   1.000   P
02          4.010   1.000   S
06          3.650   1.000   P
06          5.750   1.000   S
10         19.630   1.000   S
# 2023  1  4 22 10 38.05  26.7387  103.1522    4.69  0.00  4.02  6.37  0.68       438
07          1.850   1.000   P
07          2.710   1.000   S
10          4.880   1.000   P
10          5.580   1.000   S
01          6.060   1.000   P
01          8.890   1.000   S
# 2023  1  4 22 34  8.78  26.9587  102.9242    4.61  0.00  1.03  0.71  0.20       439
01          1.130   1.000   P
01          2.180   1.000   S
05          1.090   1.000   P
05          2.660   1.000   S
09          5.460   1.000   P
09          8.930   1.000   S
03         10.140   1.000   S
# 2023  1  4 22 58 11.46  26.4548  102.9920   26.56  0.00  2.52  3.22  0.36       440
08         12.260   1.000   S
09         12.260   1.000   S
07          9.010   1.000   P
07         14.280   1.000   S
01          9.560   1.000   P
01         16.500   1.000   S
06         18.470   1.000   S
05         10.900   1.000   P
05         18.710   1.000   S
02         15.930   1.000   P
02         24.920   1.000   S
03         15.850   1.000   P
03         26.340   1.000   S
# 2023  1  4 23 13 47.70  26.8650  102.7487    6.52  0.00  1.89  9.98  0.22       441
09          3.100   1.000   P
01          3.740   1.000   P
01          5.300   1.000   S
08          5.110   1.000   P
08          8.160   1.000   S
# 2023  1  5  2 34 39.47  27.1020  102.9577    3.09  0.00  3.30  8.86  0.35       442
05          3.020   1.000   P
05          5.070   1.000   S
03          3.490   1.000   P
03          5.470   1.000   S
01          3.350   1.000   P
01          7.440   1.000   S
# 2023  1  5  4  4 34.44  26.7432  103.2735    2.50  0.00  0.00  0.00  8.20       443
08          4.380   1.000   P
08          9.020   1.000   S
01          7.290   1.000   P
01         12.200   1.000   S
09          9.120   1.000   P
09         13.740   1.000   S
03         19.840   1.000   S
# 2023  1  5  5 44 29.45  27.0860  102.9563    7.95  0.00  5.60  8.24  0.07       444
02          3.510   1.000   P
02          5.910   1.000   S
01          3.730   1.000   P
01          5.870   1.000   S
08          6.640   1.000   P
# 2023  1  5  8 54 25.51  27.2548  102.9727    4.45  0.00  9.99  7.68  1.12       445
02          1.990   1.000   S
03          1.150   1.000   P
03          1.650   1.000   S
05          7.530   1.000   P
05          8.750   1.000   S
# 2023  1  5  9 13 19.27  27.0582  102.6767    2.05  0.00  0.00  0.00  2.59       446
04          0.720   1.000   S
04          0.720   1.000   P
05          3.930   1.000   P
06          8.510   1.000   S
03          6.060   1.000   P
# 2023  1  5 11 13 26.10  27.2623  103.1828   17.85  0.00  2.72  2.74  0.22       447
02          4.800   1.000   P
02          6.780   1.000   S
07          8.610   1.000   P
04          9.210   1.000   P
04         15.920   1.000   S
# 2023  1  5 11 23 37.33  27.3220  102.9617   34.34  0.00  4.66  1.70  0.19       448
03          5.650   1.000   P
03          9.600   1.000   S
02          6.250   1.000   P
02          9.330   1.000   S
07         18.480   1.000   S
# 2023  1  5 13 33 39.73  26.9083  103.0197    2.41  0.00  0.00  0.00  3.08       449
01          1.240   1.000   P
01          2.660   1.000   S
06          2.090   1.000   P
06          3.750   1.000   S
07          2.690   1.000   P
07          4.260   1.000   S
09          9.530   1.000   S
# 2023  1  5 13 36 42.89  26.8442  102.9487   10.94  0.00  0.96  2.82  0.35       450
01          2.330   1.000   P
08          3.010   1.000   P
08          4.670   1.000   S
06          3.120   1.000   P
06          4.950   1.000   S
05          3.690   1.000   P
05          5.510   1.000   S
07          3.570   1.000   P
07          5.370   1.000   S
09          4.470   1.000   P
09          5.690   1.000   S
02          8.660   1.000   P
02         13.270   1.000   S
03          8.240   1.000   P
# 2023  1  5 14  9 49.61  27.2310  102.8860    4.42  0.00  4.75  6.71  0.69       451
02          1.370   1.000   P
02          5.020   1.000   S
01         10.380   1.000   S
07         14.390   1.000   S
09         10.380   1.000   P
# 2023  1  5 15  6 45.75  26.9927  102.8882    2.49  0.00  0.00  0.00  4.72       452
06          1.830   1.000   S
07          7.190   1.000   P
07          8.130   1.000   S
02          9.690   1.000   S
# 2023  1  5 16 58 37.53  26.9227  102.9315   10.90  0.00  1.84  1.22  0.29       453
01          1.610   1.000   P
01          2.670   1.000   S
06          1.970   1.000   P
06          3.350   1.000   S
05          2.180   1.000   P
05          3.680   1.000   S
09          5.140   1.000   P
09          8.170   1.000   S
02         10.910   1.000   S
03         11.800   1.000   S
# 2023  1  5 17 21 53.19  26.8915  102.8975    2.49  0.00  0.00  0.00  1.81       454
06          0.760   1.000   P
06          2.080   1.000   S
05          1.500   1.000   P
05          3.010   1.000   S
03          8.080   1.000   P
# 2023  1  5 17 38 28.98  27.3563  103.0127   17.70  0.00  2.75  1.65  0.44       455
02          3.350   1.000   P
02          5.860   1.000   S
03          3.620   1.000   P
03          6.380   1.000   S
05          8.150   1.000   P
05         13.030   1.000   S
06          6.940   1.000   P
06         12.960   1.000   S
01          9.590   1.000   P
01         15.670   1.000   S
07         10.830   1.000   P
07         16.960   1.000   S
# 2023  1  5 17 49 51.04  26.7720  102.9975   28.00  0.00  6.15  6.19  0.87       456
08          4.060   1.000   P
08          8.950   1.000   S
09          8.950   1.000   S
06          8.950   1.000   S
04          8.950   1.000   P
# 2023  1  5 17 56 29.46  26.7463  103.1057    2.49  0.00  0.00  0.00  7.33       457
08          1.090   1.000   P
08          2.550   1.000   S
06         10.530   1.000   S
09         10.530   1.000   S
05         10.530   1.000   S
02         10.530   1.000   P
03         10.530   1.000   P
# 2023  1  5 18 21 45.01  26.7983  102.9683   12.17  0.00  3.04  2.45  0.40       458
08          1.850   1.000   P
08          3.510   1.000   S
09          3.770   1.000   P
09          6.410   1.000   S
10          5.890   1.000   P
10          8.110   1.000   S
# 2023  1  5 18 26 48.97  27.0050  102.8087    4.41  0.00  1.32  0.67  0.11       459
05          1.220   1.000   P
05          2.450   1.000   S
06          2.620   1.000   P
06          4.000   1.000   S
09          5.860   1.000   P
09          9.530   1.000   S
# 2023  1  5 18 48 23.01  26.7825  102.9865   16.70  0.00  1.19  2.15  0.34       460
08          2.700   1.000   P
08          4.310   1.000   S
07          4.060   1.000   P
07          6.490   1.000   S
01          3.170   1.000   P
01          6.470   1.000   S
09          4.620   1.000   P
09          7.200   1.000   S
04          7.600   1.000   P
# 2023  1  5 18 53 13.46  26.9873  102.8825   24.05  0.00  0.96  0.79  0.12       461
06          6.530   1.000   S
01          6.530   1.000   S
08          6.530   1.000   P
03          6.530   1.000   P
07          6.530   1.000   P
09          6.530   1.000   P
# 2023  1  5 19  4  4.88  26.8153  102.9687   10.67  0.00  0.51  1.71  0.22       462
08          1.960   1.000   P
08          3.360   1.000   S
01          3.160   1.000   P
01          4.020   1.000   S
07          3.560   1.000   P
07          5.580   1.000   S
06          5.740   1.000   S
09          4.000   1.000   P
09          6.380   1.000   S
05          6.940   1.000   S
# 2023  1  5 19 19 21.07  26.8298  102.9602    4.01  0.00  1.09  1.06  0.15       463
08          1.480   1.000   P
08          3.170   1.000   S
07          3.320   1.000   P
07          5.640   1.000   S
09          3.930   1.000   P
09          6.300   1.000   S
# 2023  1  5 19 20 30.82  26.8938  102.7807   11.33  0.00  2.42  6.89  0.17       464
05          4.760   1.000   S
01          3.060   1.000   P
01          5.180   1.000   S
06          3.750   1.000   P
06          5.380   1.000   S
# 2023  1  5 19 34 36.39  26.8417  102.9537    6.47  0.00  1.68  7.56  0.07       465
08          3.350   1.000   S
07          3.400   1.000   P
07          5.730   1.000   S
09          3.970   1.000   P
09          6.290   1.000   S
# 2023  1  5 19 38 54.52  26.8500  102.9370   17.27  0.00  0.64  1.49  0.20       466
01          2.960   1.000   P
01          4.720   1.000   S
08          3.890   1.000   P
08          5.620   1.000   S
06          3.540   1.000   P
06          6.030   1.000   S
05          4.160   1.000   P
05          6.600   1.000   S
09          4.480   1.000   P
09          7.120   1.000   S
07          4.770   1.000   P
07          6.950   1.000   S
# 2023  1  5 19 41 38.76  27.0760  102.8410   17.20  0.00  2.17  2.40  0.32       467
05          3.390   1.000   P
05          5.530   1.000   S
06          3.920   1.000   P
06          5.240   1.000   S
07         12.520   1.000   S
09         12.120   1.000   S
# 2023  1  5 19 43 26.10  26.8935  102.7828    8.09  0.00  1.51  5.34  0.24       468
01          3.030   1.000   P
01          4.660   1.000   S
09          3.130   1.000   P
09          6.400   1.000   S
07          6.330   1.000   P
02          8.080   1.000   P
