# 2023  1  5 19 53 12.36  26.9385  103.1272    2.47  0.00  0.00  0.00  3.04       469
07          1.200   1.000   P
07          3.520   1.000   S
08          7.630   1.000   S
05          7.630   1.000   S
03          7.630   1.000   P
09          7.630   1.000   P
# 2023  1  5 19 57 21.98  26.8227  102.9823   16.84  0.00  2.45  2.67  0.21       470
01          3.610   1.000   P
01          5.300   1.000   S
06          7.050   1.000   S
05          4.460   1.000   P
05          7.420   1.000   S
09          7.600   1.000   S
# 2023  1  5 20 36  6.00  27.0393  102.8378    2.48  0.00  0.00  0.00  2.26       471
06          0.740   1.000   P
06          2.400   1.000   S
03          4.140   1.000   P
07          9.050   1.000   P
10          9.670   1.000   P
# 2023  1  5 21  2 21.15  27.0027  102.9058    8.53  0.00  1.00  0.89  0.29       472
05          1.250   1.000   P
05          2.470   1.000   S
06          1.450   1.000   P
06          2.410   1.000   S
01          2.130   1.000   P
01          3.570   1.000   S
03          4.710   1.000   P
03          8.970   1.000   S
02          9.010   1.000   S
09          6.040   1.000   P
09         10.150   1.000   S
# 2023  1  5 21  4 48.58  26.8278  102.9747   17.61  0.00  1.15  1.85  0.39       473
08          3.080   1.000   P
08          5.190   1.000   S
01          3.160   1.000   P
01          5.180   1.000   S
07          4.460   1.000   P
07          6.420   1.000   S
06          4.120   1.000   P
06          6.560   1.000   S
05          4.520   1.000   P
05          8.080   1.000   S
09          4.850   1.000   P
09          7.540   1.000   S
02          9.080   1.000   P
02         14.240   1.000   S
03         13.460   1.000   S
# 2023  1  5 21 57 36.30  26.8282  102.9635   20.10  0.00  1.09  1.50  0.32       474
08          3.480   1.000   P
08          5.320   1.000   S
01          6.880   1.000   S
06          3.920   1.000   P
06          6.940   1.000   S
07          7.360   1.000   S
05          8.090   1.000   S
09          5.020   1.000   P
09          7.700   1.000   S
10          6.490   1.000   P
10         10.800   1.000   S
02          8.670   1.000   P
03          8.730   1.000   P
# 2023  1  5 22  1 27.55  26.9720  103.0392    2.50  0.00  0.00  0.00  3.29       475
01          1.780   1.000   P
01          3.810   1.000   S
05          2.820   1.000   P
05          5.790   1.000   S
10          9.000   1.000   P
# 2023  1  5 22  4  9.56  26.8302  102.9665   15.08  0.00  0.60  1.27  0.22       476
08          2.830   1.000   P
08          4.380   1.000   S
01          2.820   1.000   P
01          4.710   1.000   S
06          3.540   1.000   P
06          6.350   1.000   S
07          4.310   1.000   P
07          6.100   1.000   S
05          4.170   1.000   P
05          6.930   1.000   S
09          4.450   1.000   P
09          7.240   1.000   S
02          8.380   1.000   P
03          8.540   1.000   P
# 2023  1  5 22  8 16.99  26.8932  102.8350   15.94  0.00  2.86  1.98  0.17       477
01          3.010   1.000   P
01          4.890   1.000   S
09          4.520   1.000   P
09          6.610   1.000   S
08          4.670   1.000   P
# 2023  1  5 22 15 53.44  26.8372  102.9652   15.59  0.00  1.05  1.82  0.15       478
08          4.700   1.000   S
01          3.010   1.000   P
01          4.900   1.000   S
09          4.720   1.000   P
09          7.130   1.000   S
# 2023  1  5 22 21  5.24  26.8362  102.9635   17.51  0.00  0.99  1.34  0.31       479
08          3.140   1.000   P
08          4.780   1.000   S
01          3.260   1.000   P
01          5.360   1.000   S
06          4.120   1.000   P
06          6.440   1.000   S
07          7.000   1.000   S
05          4.320   1.000   P
05          7.580   1.000   S
09          4.630   1.000   P
09          7.500   1.000   S
10          6.170   1.000   P
10         11.080   1.000   S
02          8.490   1.000   P
02         13.040   1.000   S
03          8.600   1.000   P
# 2023  1  5 22 27 45.89  26.8377  102.9692   10.90  0.00  0.62  1.94  0.27       480
08          2.400   1.000   P
08          3.390   1.000   S
06          2.970   1.000   P
07          3.810   1.000   P
07          5.850   1.000   S
05          3.670   1.000   P
05          6.790   1.000   S
09          4.190   1.000   P
09          7.070   1.000   S
10          5.850   1.000   P
10          9.690   1.000   S
02          7.890   1.000   P
02         13.370   1.000   S
03          8.140   1.000   P
# 2023  1  5 22 43 28.89  26.8225  102.9705   18.86  0.00  3.60  1.18  0.11       481
01          5.670   1.000   S
06          4.330   1.000   P
06          6.990   1.000   S
05          4.840   1.000   P
02          8.680   1.000   P
03          8.840   1.000   P
03         14.500   1.000   S
# 2023  1  5 22 45 17.70  26.8367  102.9672   12.74  0.00  0.76  2.18  0.30       482
08          2.410   1.000   P
08          4.310   1.000   S
01          2.590   1.000   P
07          3.550   1.000   P
07          5.700   1.000   S
05          6.980   1.000   S
09          4.110   1.000   P
09          6.710   1.000   S
10          5.810   1.000   P
10         10.230   1.000   S
02         13.640   1.000   S
# 2023  1  5 22 47 19.95  26.8368  102.9738   16.56  0.00  0.76  1.70  0.20       483
08          3.110   1.000   P
08          4.970   1.000   S
01          3.090   1.000   P
01          4.910   1.000   S
07          6.540   1.000   S
05          4.320   1.000   P
05          7.410   1.000   S
09          4.860   1.000   P
09          7.540   1.000   S
# 2023  1  5 22 55 34.83  26.8173  102.9560   18.24  0.00  1.49  1.22  0.25       484
08          3.440   1.000   P
08          5.220   1.000   S
01          3.450   1.000   P
01          5.850   1.000   S
07          6.950   1.000   S
05          4.570   1.000   P
05          7.610   1.000   S
10          5.950   1.000   P
10          9.620   1.000   S
02          8.950   1.000   P
03          9.180   1.000   P
# 2023  1  5 22 57 34.80  27.0633  102.7987    2.00  0.00  0.00  0.00  2.12       485
05          1.510   1.000   P
06          0.500   1.000   S
08         10.050   1.000   P
# 2023  1  5 23  2 29.37  26.8183  102.9710   18.59  0.00  0.77  1.66  0.23       486
08          3.500   1.000   P
08          5.350   1.000   S
01          3.580   1.000   P
01          5.940   1.000   S
07          4.240   1.000   P
07          6.410   1.000   S
06          6.630   1.000   S
09          5.040   1.000   P
09          7.150   1.000   S
05          5.120   1.000   P
05          7.950   1.000   S
# 2023  1  5 23  5 44.47  26.8407  102.9618   13.20  0.00  0.61  0.84  0.15       487
01          2.640   1.000   P
01          4.380   1.000   S
08          2.580   1.000   P
08          4.330   1.000   S
09          4.290   1.000   P
09          6.970   1.000   S
10          6.210   1.000   P
10          9.910   1.000   S
02          8.220   1.000   P
02         13.740   1.000   S
03          8.100   1.000   P
03         13.790   1.000   S
# 2023  1  5 23 11 18.13  26.8405  102.9585   19.60  0.00  0.81  0.96  0.16       488
01          3.640   1.000   P
01          5.430   1.000   S
08          3.800   1.000   P
08          5.810   1.000   S
07          4.740   1.000   P
05          4.580   1.000   P
05          7.650   1.000   S
09          4.970   1.000   P
09          7.660   1.000   S
03          8.420   1.000   P
03         14.130   1.000   S
# 2023  1  5 23 27 56.86  26.8317  102.9673   17.33  0.00  0.96  1.41  0.34       489
08          2.920   1.000   P
08          4.620   1.000   S
01          3.140   1.000   P
01          5.420   1.000   S
06          3.860   1.000   P
06          6.420   1.000   S
07          4.140   1.000   P
07          6.600   1.000   S
05          7.980   1.000   S
09          4.560   1.000   P
09          7.210   1.000   S
10          6.270   1.000   P
10         10.780   1.000   S
02          8.320   1.000   P
02         13.800   1.000   S
03          8.650   1.000   P
03         14.820   1.000   S
# 2023  1  5 23 33 34.97  26.8318  102.9740   15.44  0.00  1.46  2.50  0.32       490
08          2.880   1.000   P
08          4.900   1.000   S
01          3.240   1.000   P
01          4.980   1.000   S
07          3.820   1.000   P
07          6.110   1.000   S
02          9.160   1.000   P
02         13.450   1.000   S
# 2023  1  5 23 38 26.54  26.8208  102.9560   17.93  0.00  1.45  1.11  0.25       491
08          3.160   1.000   P
08          5.140   1.000   S
01          3.380   1.000   P
01          5.590   1.000   S
07          6.980   1.000   S
05          4.390   1.000   P
05          7.780   1.000   S
10          6.160   1.000   P
02          8.880   1.000   P
02         14.520   1.000   S
03          9.010   1.000   P
03         13.960   1.000   S
# 2023  1  6  0 11 42.34  26.8433  102.9867   20.91  0.00  2.84  2.43  0.44       492
08          3.900   1.000   P
08          5.900   1.000   S
01          4.420   1.000   P
01          6.110   1.000   S
09          5.900   1.000   P
09          7.540   1.000   S
03          8.020   1.000   P
03         14.600   1.000   S
# 2023  1  6  0 20 12.46  26.6807  102.9968    7.40  0.00  4.91  3.57  0.50       493
08          1.760   1.000   P
08          3.190   1.000   S
07          5.760   1.000   P
07          6.480   1.000   S
02         10.860   1.000   P
# 2023  1  6  0 37 10.63  26.7338  102.5582    9.64  0.00  3.62  2.72  0.31       494
09          4.650   1.000   P
09          7.230   1.000   S
04          6.700   1.000   P
10         15.450   1.000   S
# 2023  1  6  1 10 21.25  26.3922  103.0088   32.06  0.00  9.64  4.37  0.65       495
10          6.110   1.000   P
10          9.580   1.000   S
08          9.070   1.000   P
09          9.310   1.000   P
09         15.250   1.000   S
07         10.910   1.000   P
05         11.330   1.000   P
# 2023  1  6  1 22 22.66  26.6853  103.1898    2.49  0.00  0.00  0.00  3.16       496
07          2.950   1.000   P
07          5.460   1.000   S
10          3.900   1.000   P
10          5.590   1.000   S
09          7.940   1.000   P
# 2023  1  6  2  9 12.91  26.8327  102.9187   14.06  0.00  1.27  1.70  0.30       497
01          2.790   1.000   P
01          4.790   1.000   S
08          2.770   1.000   P
08          4.820   1.000   S
09          4.390   1.000   P
09          5.490   1.000   S
05          4.030   1.000   P
05          5.890   1.000   S
03          8.610   1.000   P
03         13.840   1.000   S
02          8.430   1.000   P
# 2023  1  6  2 43 15.81  26.8492  103.2278    2.15  0.00  0.00  0.00  1.18       498
07          0.930   1.000   S
01          5.880   1.000   P
06          4.180   1.000   P
# 2023  1  6  2 50 22.41  26.8410  102.9640   18.14  0.00  0.70  1.15  0.26       499
01          3.290   1.000   P
01          5.520   1.000   S
08          3.170   1.000   P
08          5.300   1.000   S
06          3.810   1.000   P
07          4.460   1.000   P
07          6.550   1.000   S
05          4.190   1.000   P
05          7.590   1.000   S
09          4.720   1.000   P
09          7.530   1.000   S
10          6.490   1.000   P
10         10.810   1.000   S
02          8.420   1.000   P
02         13.950   1.000   S
03          8.340   1.000   P
03         14.210   1.000   S
# 2023  1  6  2 57  0.15  26.8468  102.9662   18.76  0.00  0.50  1.70  0.05       500
01          3.610   1.000   P
01          5.370   1.000   S
08          3.590   1.000   P
07          6.870   1.000   S
09          7.930   1.000   S
# 2023  1  6  3  0 59.17  26.8323  102.9647   13.92  0.00  1.04  2.99  0.42       501
08          2.940   1.000   P
08          4.510   1.000   S
01          2.490   1.000   P
01          4.470   1.000   S
07          3.850   1.000   P
07          5.890   1.000   S
05          6.940   1.000   S
09          6.710   1.000   S
03         13.940   1.000   S
# 2023  1  6  3 25  3.97  26.8322  102.9583   16.75  0.00  0.68  1.19  0.22       502
08          3.130   1.000   P
08          5.030   1.000   S
01          3.090   1.000   P
01          5.080   1.000   S
06          6.630   1.000   S
07          4.470   1.000   P
07          6.410   1.000   S
05          4.400   1.000   P
05          7.170   1.000   S
09          4.600   1.000   P
09          6.810   1.000   S
10         10.320   1.000   S
03          8.600   1.000   P
03         13.850   1.000   S
# 2023  1  6  3 29 13.68  26.8285  102.9798   12.43  0.00  1.08  3.28  0.39       503
08          4.120   1.000   S
01          2.520   1.000   P
01          4.420   1.000   S
07          3.740   1.000   P
07          5.280   1.000   S
05          8.070   1.000   S
09          4.510   1.000   P
09          6.680   1.000   S
# 2023  1  6  3 31  5.79  26.8022  102.7290    2.52  0.00  9.43  4.27  0.62       504
09          1.450   1.000   P
09          2.730   1.000   S
04          5.380   1.000   P
04          7.510   1.000   S
10         12.930   1.000   S
# 2023  1  6  3 41 32.23  26.8333  102.9597   16.79  0.00  0.89  2.13  0.24       505
08          3.520   1.000   P
08          4.950   1.000   S
01          5.600   1.000   S
07          4.390   1.000   P
07          6.370   1.000   S
05          6.550   1.000   S
09          4.590   1.000   P
09          7.130   1.000   S
# 2023  1  6  4 27  4.58  26.8365  103.0008   15.58  0.00  3.24  2.65  0.25       506
08          2.850   1.000   P
01          3.420   1.000   P
01          5.260   1.000   S
05          4.380   1.000   P
05          7.400   1.000   S
10          5.620   1.000   P
10         10.160   1.000   S
02          8.650   1.000   P
03          8.500   1.000   P
03         13.540   1.000   S
# 2023  1  6  4 27 46.19  26.8252  102.9733   17.61  0.00  0.87  2.13  0.14       507
08          5.220   1.000   S
07          4.220   1.000   P
07          6.210   1.000   S
09          4.790   1.000   P
09          7.400   1.000   S
02         14.300   1.000   S
# 2023  1  6  4 51 22.47  26.8230  102.9820   18.16  0.00  0.91  1.53  0.18       508
08          3.190   1.000   P
08          5.180   1.000   S
01          5.630   1.000   S
05          4.690   1.000   P
05          7.870   1.000   S
09          5.110   1.000   P
09          7.580   1.000   S
# 2023  1  6  4 53 39.47  26.3217  103.0612   27.08  0.00  1.48  2.86  0.18       509
10          6.550   1.000   P
08          9.000   1.000   P
09          9.890   1.000   P
09         16.580   1.000   S
07         10.990   1.000   P
07         18.030   1.000   S
05         13.810   1.000   P
# 2023  1  6  5 22 43.95  27.2942  102.8752    2.01  0.00  0.00  0.00  2.06       510
03          0.510   1.000   P
03          1.220   1.000   S
01          8.630   1.000   P
09         10.790   1.000   P
# 2023  1  6  5 27 13.48  27.0897  102.8347    2.36  0.00  0.00  0.00  6.80       511
04          2.040   1.000   P
04          3.280   1.000   S
09          8.250   1.000   P
09         12.270   1.000   S
07          7.000   1.000   P
10         18.500   1.000   S
# 2023  1  6  6  5 52.36  26.8083  102.9737   14.23  0.00  1.17  2.14  0.22       512
08          2.240   1.000   P
08          4.110   1.000   S
01          5.120   1.000   S
07          3.800   1.000   P
07          6.120   1.000   S
09          4.380   1.000   P
09          6.900   1.000   S
# 2023  1  6  6  8 33.44  26.8257  102.9453   13.08  0.00  1.09  2.41  0.30       513
08          2.310   1.000   P
08          4.300   1.000   S
01          2.230   1.000   P
01          4.450   1.000   S
09          4.020   1.000   P
09          6.420   1.000   S
03         14.580   1.000   S
# 2023  1  6  6 12 13.40  26.8523  102.9975    4.07  0.00  1.80  2.56  0.54       514
01          1.570   1.000   P
01          3.380   1.000   S
08          1.800   1.000   P
08          3.620   1.000   S
07          2.470   1.000   P
07          4.590   1.000   S
05          4.940   1.000   P
05          5.470   1.000   S
# 2023  1  6  6 36 53.05  26.9130  103.0245    2.34  0.00  0.00  0.00  3.03       515
01          0.940   1.000   P
01          3.050   1.000   S
04          6.570   1.000   P
02          6.950   1.000   P
02         11.240   1.000   S
# 2023  1  6  7  0 25.87  26.9640  102.7913   17.29  0.00  1.27  1.22  0.09       516
05          3.370   1.000   P
05          4.830   1.000   S
06          3.690   1.000   P
06          5.950   1.000   S
01          3.730   1.000   P
09          5.550   1.000   P
09          8.870   1.000   S
# 2023  1  6  7 51  6.85  26.8255  102.9688   15.36  0.00  0.98  2.03  0.30       517
08          3.070   1.000   P
08          4.770   1.000   S
01          2.880   1.000   P
01          4.940   1.000   S
07          3.860   1.000   P
07          5.850   1.000   S
09          4.460   1.000   P
09          6.940   1.000   S
03         15.170   1.000   S
# 2023  1  6  8 11  6.33  26.6620  103.1193    2.36  0.00  0.00  0.00  5.43       518
08          2.560   1.000   P
08          4.430   1.000   S
09          5.920   1.000   P
09         10.980   1.000   S
06         12.560   1.000   S
04         11.160   1.000   P
# 2023  1  6  8 51 41.03  26.8542  102.9865    2.48  0.00  0.00  0.00  3.91       519
01          0.130   1.000   P
01          2.000   1.000   S
08          1.880   1.000   P
08          4.110   1.000   S
07          0.090   1.000   P
# 2023  1  6  8 56 50.66  26.7720  103.2538   12.42  0.00  6.30  4.67  0.43       520
07          2.770   1.000   P
07          5.340   1.000   S
01          7.180   1.000   P
01         10.320   1.000   S
09          8.250   1.000   P
# 2023  1  6 10 26 10.46  26.9518  102.7990    2.49  0.00  0.00  0.00  5.36       521
01          1.740   1.000   S
09          7.970   1.000   S
07          9.820   1.000   P
07         14.100   1.000   S
# 2023  1  6 10 40 30.21  26.8512  102.9758   14.88  0.00  1.05  1.10  0.13       522
01          2.860   1.000   P
01          4.540   1.000   S
07          5.970   1.000   S
05          6.610   1.000   S
02          8.130   1.000   P
02         13.210   1.000   S
# 2023  1  6 11  5  1.04  26.8227  102.9990   21.57  0.00  0.87  2.03  0.23       523
08          4.020   1.000   P
08          6.020   1.000   S
01          3.880   1.000   P
07          6.720   1.000   S
05          5.140   1.000   P
05          8.720   1.000   S
09          5.720   1.000   P
09          8.340   1.000   S
# 2023  1  6 11 15 40.27  26.9842  102.9272   11.62  0.00  1.13  1.35  0.39       524
06          1.680   1.000   P
06          2.850   1.000   S
05          1.890   1.000   P
05          3.530   1.000   S
01          2.230   1.000   P
01          3.530   1.000   S
08          5.220   1.000   P
08          7.970   1.000   S
07          5.480   1.000   P
07          8.010   1.000   S
03          6.100   1.000   P
03          8.050   1.000   S
02          6.020   1.000   P
02          7.790   1.000   S
09          5.780   1.000   P
10          8.270   1.000   P
10         14.770   1.000   S
# 2023  1  6 11 24 59.59  26.8333  102.9682   14.39  0.00  0.89  1.96  0.38       525
08          2.590   1.000   P
08          4.720   1.000   S
01          2.710   1.000   P
01          4.680   1.000   S
07          3.860   1.000   P
07          5.910   1.000   S
05          3.730   1.000   P
05          7.530   1.000   S
09          4.360   1.000   P
09          7.080   1.000   S
10          7.210   1.000   P
10          9.400   1.000   S
02          8.790   1.000   P
02         13.620   1.000   S
# 2023  1  6 12 54 51.50  26.8183  102.9385   20.05  0.00  2.73  6.32  0.74       526
08          3.950   1.000   P
09          4.340   1.000   P
09          6.900   1.000   S
05          6.440   1.000   P
05          7.700   1.000   S
07          6.420   1.000   P
07          6.740   1.000   S
02          8.300   1.000   P
# 2023  1  6 13 17 11.25  27.0735  102.8695    4.41  0.00  8.34  4.60  0.11       527
04          4.750   1.000   S
01          3.410   1.000   P
01          5.440   1.000   S
08         11.470   1.000   S
10         17.930   1.000   S
