# 2022  9 29 23 52 18.51  27.1628  102.9250    4.80  0.00  2.47  3.74  0.51       168
02          2.120   1.000   P
02          3.430   1.000   S
06          4.740   1.000   P
06          5.830   1.000   S
04          4.650   1.000   P
04          6.650   1.000   S
# 2022  9 30  8 46 38.54  27.2217  102.9590    5.02  0.00  5.83  7.62  0.34       169
02          1.450   1.000   P
02          1.450   1.000   S
06          5.130   1.000   P
06          7.940   1.000   S
10         21.840   1.000   S
# 2022  9 30 10 42  7.08  26.9342  102.7940    6.80  0.00  1.41  2.39  0.18       170
06          3.020   1.000   P
06          4.260   1.000   S
08          4.870   1.000   P
08          8.670   1.000   S
02         12.180   1.000   S
# 2022  9 30 14 45 34.36  26.8672  102.9112    2.50  0.00  0.00  0.00  4.46       171
06          1.310   1.000   P
06          3.340   1.000   S
08          4.240   1.000   S
02          8.910   1.000   P
02         12.520   1.000   S
# 2022  9 30 15  4 17.95  26.9795  102.8388    2.49  0.00  0.00  0.00  3.69       172
01          3.120   1.000   S
04          2.570   1.000   P
04          3.340   1.000   S
07          6.220   1.000   P
07         10.040   1.000   S
# 2022  9 30 20 38 43.87  26.6477  103.1545    4.97  0.00  2.40  2.01  0.24       173
10          2.600   1.000   P
10          4.270   1.000   S
07          4.240   1.000   P
07          6.030   1.000   S
04         18.250   1.000   S
# 2022  9 30 21 40  5.41  26.5780  103.2527    9.36  0.00  4.60  6.61  0.46       174
07          6.300   1.000   P
07          9.210   1.000   S
08          5.410   1.000   P
08         10.610   1.000   S
02         22.920   1.000   S
# 2022 10  1  4 32 10.29  26.8335  103.1393    2.49  0.00  0.00  0.00  3.93       175
06          5.870   1.000   P
06          6.870   1.000   S
10          6.690   1.000   P
10          8.330   1.000   S
# 2022 10  2  6 10 40.50  26.8333  102.8022    4.08  0.00  1.67  2.96  0.34       176
01          2.400   1.000   P
01          4.940   1.000   S
08          3.320   1.000   P
08          6.960   1.000   S
04          7.550   1.000   S
# 2022 10  2 11 26 36.34  27.0863  102.9072    8.34  0.00  0.77  9.04  0.05       177
03          3.650   1.000   P
01          3.650   1.000   P
04          3.650   1.000   P
# 2022 10  2 12 44 15.48  27.3282  103.0065    2.50  0.00  0.00  0.00  7.04       178
02          1.050   1.000   P
02          2.540   1.000   S
03          2.350   1.000   P
04         12.920   1.000   S
10         15.910   1.000   P
# 2022 10  2 19 14 14.26  27.3463  103.1033    4.69  0.00  6.60  5.47  0.34       179
03          4.010   1.000   P
03          5.640   1.000   S
04          8.990   1.000   P
04         15.760   1.000   S
10         25.480   1.000   S
# 2022 10  2 21 50 13.42  26.8798  103.0717    9.55  0.00  2.64  4.40  0.32       180
07          3.110   1.000   S
01          3.650   1.000   P
01          5.290   1.000   S
06          4.930   1.000   S
10          6.550   1.000   P
10         10.460   1.000   S
# 2022 10  2 23 52 36.16  26.8808  103.2065    2.49  0.00  0.00  0.00  4.69       181
08          6.280   1.000   P
08          7.720   1.000   S
01          5.480   1.000   P
01          8.580   1.000   S
# 2022 10  3 22 21  8.10  27.0298  102.7675    3.66  0.00  4.72  6.48  0.47       182
04          0.490   1.000   P
01          3.930   1.000   P
01          6.230   1.000   S
03          6.090   1.000   P
03          8.540   1.000   S
# 2022 10  4  0 52 19.18  26.8708  103.1332    2.49  0.00  0.00  0.00  6.65       183
01          4.320   1.000   P
01          6.770   1.000   S
02         10.030   1.000   P
02         12.320   1.000   S
# 2022 10  4 12 18 38.75  27.0597  102.7913    9.28  0.00  1.16  3.48  0.07       184
04          2.190   1.000   P
04          2.850   1.000   S
01          3.930   1.000   P
01          6.460   1.000   S
02          8.950   1.000   S
# 2022 10  4 16 15 53.57  27.2340  103.0085    2.49  0.00  0.00  0.00  5.11       185
03          1.940   1.000   P
03          2.590   1.000   S
06          5.460   1.000   P
07          9.490   1.000   P
07         13.270   1.000   S
# 2022 10  5  0 16 19.49  26.7075  103.2275    2.53  0.00  9.58  6.51  1.08       186
07          1.650   1.000   P
07          4.110   1.000   S
08          4.400   1.000   P
01          8.120   1.000   P
01         11.330   1.000   S
02         20.500   1.000   S
# 2022 10  5  2 43 18.23  27.3243  102.9682    2.50  0.00  0.00  0.00  4.86       187
03          1.760   1.000   P
03          1.760   1.000   S
02          1.760   1.000   P
02          1.760   1.000   S
01         15.470   1.000   S
# 2022 10  5  3  3 52.08  26.7758  102.9692    5.13  0.00  5.29  3.82  0.71       188
08          0.630   1.000   P
08          2.130   1.000   S
07          4.020   1.000   P
07          5.160   1.000   S
10          5.700   1.000   P
10          6.760   1.000   S
# 2022 10  5  7  5  1.34  26.7823  102.9625    2.51  0.00  5.99  6.90  0.94       189
01          2.450   1.000   P
01          4.850   1.000   S
04          4.950   1.000   P
04         12.490   1.000   S
02         10.460   1.000   P
02         15.120   1.000   S
# 2022 10  5  7 18 14.17  26.7123  103.1908    2.05  0.00  0.00  0.00  2.00       190
07          1.600   1.000   P
07          2.270   1.000   S
10          4.070   1.000   P
10          5.300   1.000   S
06          8.360   1.000   P
# 2022 10  5 20 23 43.15  27.2727  103.1448   14.03  0.00  3.40  5.05  0.38       191
02          3.110   1.000   P
02          5.740   1.000   S
03          4.990   1.000   P
03          6.650   1.000   S
04         14.750   1.000   S
10         13.750   1.000   P
# 2022 10  5 23 49 55.77  26.7208  102.9910   15.91  0.00  4.25  2.59  0.33       192
08          4.220   1.000   S
10          4.220   1.000   P
07          4.220   1.000   P
01          4.220   1.000   P
06          6.180   1.000   P
# 2022 10  6 11  3 32.84  27.2290  102.9590    4.51  0.00  5.48  7.38  0.32       193
02          0.920   1.000   P
02          1.420   1.000   S
06          5.600   1.000   P
06          8.710   1.000   S
08         15.700   1.000   S
# 2022 10  6 13 38  1.84  26.5635  102.9138    5.66  0.00  5.14  9.73  0.32       194
10          2.340   1.000   P
07          7.260   1.000   P
01          7.280   1.000   P
01         11.490   1.000   S
04         16.530   1.000   S
# 2022 10  6 18 50 14.03  26.5208  103.0093   13.24  0.00  6.96  2.20  0.36       195
10          2.220   1.000   P
10          3.860   1.000   S
08          6.090   1.000   P
08          8.110   1.000   S
07          6.880   1.000   P
# 2022 10  6 20 50 33.20  26.9402  102.8288    2.51  0.00  3.58  6.47  0.21       196
01          1.650   1.000   P
01          2.760   1.000   S
08          4.720   1.000   P
08          8.190   1.000   S
02         11.710   1.000   S
# 2022 10  7  8 31 44.48  26.9512  102.8182    3.66  0.00  2.98  3.74  0.21       197
06          2.060   1.000   P
06          3.820   1.000   S
03          6.780   1.000   P
03         10.530   1.000   S
10          8.740   1.000   P
# 2022 10  7 14 43 45.92  27.1692  102.9718    4.99  0.00  2.19  1.74  0.43       198
02          1.720   1.000   P
02          2.900   1.000   S
03          2.060   1.000   P
03          3.340   1.000   S
06          5.350   1.000   P
06          6.280   1.000   S
# 2022 10  7 21  3 12.71  26.8587  102.9898    2.00  0.00  0.00  0.00  1.59       199
04          7.280   1.000   P
10          7.280   1.000   P
03          7.280   1.000   P
# 2022 10  8 17 23 15.42  27.0460  102.9688    5.66  0.00  2.22  7.75  0.39       200
01          4.570   1.000   S
03          4.570   1.000   P
04          4.570   1.000   P
10         16.200   1.000   S
# 2022 10  8 21 53 11.73  26.9088  103.0863   29.77  0.00  0.72  1.43  0.06       201
07          8.260   1.000   S
10          8.260   1.000   P
02          8.260   1.000   P
04          8.260   1.000   P
# 2022 10  9  0 45  5.51  27.3472  102.9548    2.51  0.00  8.15  5.03  0.98       202
03          1.310   1.000   P
03          2.390   1.000   S
04          8.930   1.000   P
04         12.060   1.000   S
06         13.170   1.000   S
08         21.130   1.000   S
# 2022 10  9  3  4 35.27  27.3155  102.9322    2.51  0.00  3.00  2.19  0.35       203
03          1.270   1.000   P
03          1.780   1.000   S
02          2.130   1.000   P
02          3.010   1.000   S
10         25.690   1.000   S
# 2022 10  9  7 12  8.40  26.7700  103.0583    2.35  0.00  0.00  0.00  3.21       204
08          0.680   1.000   P
08          1.880   1.000   S
07          2.150   1.000   P
07          3.320   1.000   S
10          5.080   1.000   P
10          6.760   1.000   S
# 2022 10  9 15 14 15.27  26.8877  102.9923    4.91  0.00  1.37  2.11  0.37       205
01          1.110   1.000   P
01          2.750   1.000   S
07          3.320   1.000   P
07          4.300   1.000   S
10          6.900   1.000   P
10         10.630   1.000   S
# 2022 10  9 19 40 11.26  26.7030  103.1853    5.21  0.00  2.89  8.06  0.36       206
07          3.220   1.000   P
07          4.850   1.000   S
10          3.800   1.000   P
10          6.150   1.000   S
06         11.100   1.000   S
04         18.040   1.000   S
# 2022 10  9 21 23 16.67  26.9503  102.8343    8.75  0.00  3.82  6.55  0.52       207
01          3.320   1.000   S
04          3.320   1.000   P
04          3.320   1.000   S
02          6.520   1.000   P
10          8.280   1.000   P
# 2022 10 10  3 35  0.90  26.7690  102.8635   16.13  0.00  2.26  3.15  0.11       208
08          3.820   1.000   P
08          5.410   1.000   S
06          4.830   1.000   P
02          9.710   1.000   P
02         16.490   1.000   S
# 2022 10 10  4 59 56.31  26.9287  103.0695    7.49  0.00  4.78  8.45  0.57       209
07          3.680   1.000   S
06          3.680   1.000   P
06          3.680   1.000   S
08          3.680   1.000   P
03          6.770   1.000   P
# 2022 10 10  6  4 39.40  27.0522  102.9198    2.49  0.00  0.00  0.00  4.48       210
02          4.480   1.000   P
02          5.430   1.000   S
08          8.160   1.000   P
08          9.300   1.000   S
# 2022 10 10 17 35 35.25  26.8920  102.8813    2.62  0.00  2.18  3.32  0.62       211
01          0.650   1.000   P
01          2.530   1.000   S
04          7.030   1.000   S
10          7.660   1.000   P
03         13.430   1.000   S
02         11.790   1.000   S
# 2022 10 11  1  5 31.53  27.1227  102.5165    2.48  0.00  0.00  0.00  7.28       212
04          3.830   1.000   P
04          6.000   1.000   S
03         12.950   1.000   S
06          8.370   1.000   P
06         14.560   1.000   S
# 2022 10 11  1 38 53.50  27.2647  102.8870   13.09  0.00  2.52  1.36  0.23       213
03          2.620   1.000   P
03          3.300   1.000   S
02          2.720   1.000   P
02          4.600   1.000   S
04          9.180   1.000   S
07          9.740   1.000   P
# 2022 10 11  3 22 39.60  26.9892  102.9652   12.30  0.00  0.95  0.87  0.06       214
06          2.410   1.000   P
06          3.130   1.000   S
07          7.570   1.000   S
10          8.510   1.000   P
10         14.340   1.000   S
# 2022 10 11 10 53 17.66  27.0333  102.8225    2.49  0.00  0.00  0.00  0.51       215
04          2.330   1.000   P
06          2.330   1.000   P
03          5.000   1.000   P
# 2022 10 11 11 49 55.05  27.0925  102.7638   17.90  0.00  3.66  4.23  0.20       216
04          4.940   1.000   S
06          4.940   1.000   P
03          4.940   1.000   P
01          4.940   1.000   P
01          8.310   1.000   S
# 2022 10 11 16 43 23.70  26.5248  102.9103    2.48  0.00  0.00  0.00  9.19       217
10          3.290   1.000   P
10          4.160   1.000   S
01         12.650   1.000   S
04          9.690   1.000   P
03         25.280   1.000   S
# 2022 10 12  3 33 50.36  27.0027  102.9642    4.31  0.00  5.60  2.07  0.57       218
06          1.050   1.000   P
06          2.390   1.000   S
01          0.720   1.000   P
01          3.930   1.000   S
04          5.170   1.000   P
04          7.140   1.000   S
# 2022 10 12  6 40 19.52  27.1762  102.8823    2.49  0.00  0.00  0.00  3.48       219
02          2.460   1.000   P
02          4.530   1.000   S
06          4.470   1.000   P
06          6.940   1.000   S
01          5.660   1.000   P
# 2022 10 12 16 26 39.49  26.7573  103.0007    5.00  0.00  7.36  4.34  0.61       220
08          0.500   1.000   S
08          0.500   1.000   P
07          3.770   1.000   P
07          4.390   1.000   S
01          3.650   1.000   P
01          6.120   1.000   S
# 2022 10 12 20 20 44.82  26.7393  103.0548    2.51  0.00  4.43  7.64  0.65       221
08          0.380   1.000   P
08          1.440   1.000   S
07          3.930   1.000   S
01          5.220   1.000   P
01          7.220   1.000   S
# 2022 10 12 20 24  7.37  26.9992  102.6628    4.91  0.00  6.14  2.61  0.71       222
04          0.930   1.000   P
04          3.220   1.000   S
01          5.130   1.000   P
01          7.430   1.000   S
03         11.450   1.000   S
07         10.840   1.000   P
# 2022 10 13  7 53 44.04  26.7097  103.0147    4.63  0.00  6.12  2.66  0.88       223
08          3.000   1.000   S
07          4.200   1.000   P
07          5.390   1.000   S
06          7.280   1.000   P
06          8.720   1.000   S
04          8.100   1.000   P
# 2022 10 13 10 18 33.87  26.7002  103.2053   12.40  0.00  4.81  8.12  0.54       224
07          5.730   1.000   S
08          4.980   1.000   P
08          6.270   1.000   S
01          6.190   1.000   P
01         11.620   1.000   S
# 2022 10 13 14 37 58.18  26.6365  103.0602   23.64  0.00  5.26  6.40  0.38       225
07          6.020   1.000   P
07          8.820   1.000   S
06          7.130   1.000   P
06         13.180   1.000   S
03         20.980   1.000   S
# 2022 10 13 15 10 42.13  27.0610  103.0067    4.61  0.00  3.01  4.90  0.59       226
06          2.230   1.000   P
06          4.250   1.000   S
03          5.330   1.000   P
03          6.320   1.000   S
07          4.940   1.000   P
# 2022 10 14  2 53 26.18  26.8940  102.7155    4.35  0.00  2.22  3.48  0.48       227
04          2.360   1.000   P
04          5.380   1.000   S
06          5.010   1.000   P
06          6.560   1.000   S
10          8.800   1.000   P
10         15.080   1.000   S
# 2022 10 14  4  4 35.48  27.3435  103.0798    6.88  0.00  3.12  6.51  0.41       228
02          2.290   1.000   P
02          4.560   1.000   S
03          4.000   1.000   P
03          5.120   1.000   S
07         16.680   1.000   S
# 2022 10 14  6 42 26.56  26.6833  103.1315   19.32  0.00  5.58  6.79  0.78       229
08          4.910   1.000   P
08          6.340   1.000   S
07          5.130   1.000   P
07          6.620   1.000   S
06          5.830   1.000   P
06         12.720   1.000   S
# 2022 10 14  8 54 12.00  27.1093  102.7002    2.50  0.00  0.00  0.00  6.68       230
04          1.100   1.000   P
04          2.740   1.000   S
03          7.190   1.000   P
03          7.300   1.000   S
10         21.900   1.000   S
# 2022 10 14 10 37 11.15  26.8497  103.1138   17.43  0.00  6.38  6.49  0.89       231
07          4.440   1.000   S
08          2.820   1.000   P
08          6.970   1.000   S
10          7.550   1.000   P
10          9.630   1.000   S
# 2022 10 14 18 51 53.10  27.2888  103.0950    7.72  0.00  1.87  3.45  0.08       232
02          2.390   1.000   P
02          3.460   1.000   S
01          7.880   1.000   P
01         13.370   1.000   S
08         17.620   1.000   S
# 2022 10 15  0  5 14.16  27.3695  102.8773    2.52  0.00  6.91  8.44  0.81       233
03          1.930   1.000   P
03          3.410   1.000   S
02          4.480   1.000   P
02          4.910   1.000   S
01          8.670   1.000   P
01         16.600   1.000   S
07         11.890   1.000   P
# 2022 10 15  1  4  9.94  26.9130  103.1667    7.99  0.00  0.79  9.04  0.08       234
01          4.390   1.000   P
01          7.470   1.000   S
08          4.620   1.000   P
08          7.460   1.000   S
03          8.070   1.000   P
# 2022 10 15  2 43 51.53  26.7168  103.0253    2.36  0.00  0.00  0.00  2.24       235
08          0.900   1.000   S
07          3.870   1.000   P
07          5.100   1.000   S
04          9.050   1.000   P
# 2022 10 15  4 56 49.23  26.8883  103.0552    2.51  0.00  3.48  5.01  0.49       236
01          1.680   1.000   P
01          4.810   1.000   S
10          6.220   1.000   P
10         11.330   1.000   S
03         13.070   1.000   S
# 2022 10 15  6 40 30.88  27.2688  102.8125    2.50  0.00  8.30  6.55  0.92       237
03          1.940   1.000   P
03          2.370   1.000   S
04          5.890   1.000   P
04          6.800   1.000   S
10         24.640   1.000   S
# 2022 10 15 18 41 17.54  26.9685  102.9953   17.13  0.00  3.64  7.33  0.71       238
01          3.140   1.000   P
01          5.080   1.000   S
04          6.680   1.000   P
04          8.560   1.000   S
02          5.220   1.000   P
02         11.040   1.000   S
# 2022 10 15 23  8 45.01  26.7687  103.0097    2.52  0.00  4.71  4.64  0.42       239
08          0.880   1.000   S
07          3.270   1.000   P
07          4.410   1.000   S
04         12.690   1.000   S
# 2022 10 16  3  9  8.55  26.8372  103.2692    8.79  0.00  2.67  3.39  0.32       240
07          2.550   1.000   P
07          4.490   1.000   S
08          5.960   1.000   P
08          8.380   1.000   S
03         17.010   1.000   S
# 2022 10 16 22 35 55.54  26.9365  103.2407    7.99  0.00  0.87  9.09  0.05       241
08          5.750   1.000   P
08          9.600   1.000   S
02         12.580   1.000   S
10          8.170   1.000   P
10         13.500   1.000   S
# 2022 10 18  0  0 49.18  26.8465  103.0323    3.48  0.00  3.64  3.79  0.31       242
07          1.700   1.000   P
07          3.640   1.000   S
01          4.250   1.000   S
02          8.560   1.000   P
02         13.380   1.000   S
# 2022 10 18  6 45 14.53  27.1473  103.0122    4.85  0.00  2.15  1.54  0.25       243
02          2.040   1.000   P
02          3.690   1.000   S
03          3.340   1.000   P
03          4.320   1.000   S
07          6.590   1.000   P
# 2022 10 18 14 34 14.98  26.9490  103.2187    2.49  0.00  0.00  0.00  9.64       244
07          2.770   1.000   P
07          3.530   1.000   S
10         14.600   1.000   S
04          8.600   1.000   P
04         15.480   1.000   S
# 2022 10 18 16 41 46.49  27.2502  102.9813    8.72  0.00  0.66  0.73  0.03       245
02          1.950   1.000   S
03          1.910   1.000   P
03          2.510   1.000   S
01         11.220   1.000   S
10         13.270   1.000   P
# 2022 10 18 22 34 14.26  26.4782  102.9850   16.11  0.00  4.56  2.61  0.35       246
10          4.000   1.000   P
10          4.860   1.000   S
04         19.750   1.000   S
02         14.550   1.000   P
02         25.340   1.000   S
# 2022 10 19  3  8 57.07  26.9193  102.7657   21.35  0.00  3.69  2.74  0.45       247
04          4.830   1.000   P
04          6.440   1.000   S
06          7.330   1.000   S
03          7.260   1.000   P
03         13.510   1.000   S
# 2022 10 19  7 51 59.28  26.7245  102.8320    2.49  0.00  0.00  0.00  7.34       248
10          4.640   1.000   P
10          8.760   1.000   S
06          4.010   1.000   P
06          7.800   1.000   S
04          7.300   1.000   P
04          9.000   1.000   S
03         19.960   1.000   S
# 2022 10 19 11 13 13.71  27.0008  102.9208   23.94  0.00  2.13  0.98  0.00       249
06          6.280   1.000   S
07          6.280   1.000   P
03          6.280   1.000   P
08          6.280   1.000   P
# 2022 10 19 11 25 14.29  27.2298  103.0732    2.49  0.00  0.00  0.00  5.73       250
02          1.370   1.000   S
03          3.600   1.000   P
03          4.750   1.000   S
08         16.000   1.000   S
