# 2022  9 12 23  4 13.72  26.8437  102.9692    2.49  0.00  0.00  0.00  3.00        84
08          0.580   1.000   P
08          2.430   1.000   S
10          6.400   1.000   P
10         11.160   1.000   S
03          8.800   1.000   P
# 2022  9 13  7 49  2.61  26.6140  103.3902    3.57  0.00  1.77  4.62  0.10        85
10          6.430   1.000   P
10         10.530   1.000   S
08         12.940   1.000   S
02         14.030   1.000   P
04         24.400   1.000   S
# 2022  9 13 13 57 44.52  26.8757  102.9852    2.50  0.00  5.02  5.64  0.61        86
06          1.760   1.000   P
06          3.960   1.000   S
07          3.280   1.000   P
07          4.340   1.000   S
02          8.970   1.000   P
02         12.140   1.000   S
# 2022  9 13 14 24 51.72  27.1062  102.8392    2.48  0.00  0.00  0.00  4.13        87
04          1.690   1.000   P
04          4.020   1.000   S
06          1.780   1.000   P
06          3.410   1.000   S
10         13.770   1.000   P
# 2022  9 13 15 55 39.90  26.7775  102.7925    2.52  0.00  2.06  3.00  0.25        88
08          3.490   1.000   P
08          6.400   1.000   S
01          3.820   1.000   P
01          5.890   1.000   S
02         17.020   1.000   S
# 2022  9 13 20  5  8.33  26.4103  102.9337    2.48  0.00  0.00  0.00  4.32        89
10          3.480   1.000   P
10          6.090   1.000   S
07          9.780   1.000   P
07         16.050   1.000   S
01          9.860   1.000   P
# 2022  9 13 20 33 39.36  26.8087  102.9690    2.35  0.00  0.00  0.00  1.67        90
08          1.040   1.000   P
08          2.140   1.000   S
07          4.020   1.000   P
07          4.760   1.000   S
02          8.530   1.000   P
# 2022  9 14  0 20  8.23  27.2760  102.9193    4.62  0.00  3.26  3.04  0.33        91
02          1.480   1.000   P
02          3.040   1.000   S
04          6.540   1.000   P
04          9.710   1.000   S
08         17.530   1.000   S
# 2022  9 14  4 47 23.19  26.6690  103.0668    2.49  0.00  0.00  0.00  2.80        92
08          0.990   1.000   P
08          2.610   1.000   S
07          2.680   1.000   P
01          7.050   1.000   P
01          9.650   1.000   S
# 2022  9 14  7 11 21.48  26.9925  102.9182    2.51  0.00  5.71  2.68  0.72        93
06          0.970   1.000   S
01          0.690   1.000   P
01          2.420   1.000   S
04          5.220   1.000   P
04          6.210   1.000   S
07          9.560   1.000   S
# 2022  9 14 13 53 47.17  26.8552  103.1698    5.06  0.00  5.97  9.23  0.13        94
07          1.010   1.000   P
07          1.590   1.000   S
04         14.610   1.000   S
03          9.190   1.000   P
03         15.050   1.000   S
# 2022  9 14 14 44 14.03  26.9552  103.0008    4.97  0.00  4.82  2.77  0.42        95
06          1.570   1.000   P
06          2.030   1.000   S
07          4.070   1.000   P
07          4.990   1.000   S
10          7.920   1.000   P
# 2022  9 14 17 12  3.47  26.7937  102.9877    2.48  0.00  0.00  0.00  6.52        96
08          0.250   1.000   S
10          6.000   1.000   P
10          7.910   1.000   S
03         15.810   1.000   S
# 2022  9 14 21 53 10.97  26.9072  102.8137   29.73  0.00  1.75  2.05  0.28        97
06          9.020   1.000   S
04          9.020   1.000   S
03          9.020   1.000   P
02         14.170   1.000   S
10          9.020   1.000   P
# 2022  9 15  1 42 24.46  26.8395  103.0585    2.50  0.00  7.03  4.66  0.47        98
01          2.500   1.000   P
01          4.440   1.000   S
10          9.280   1.000   S
04          7.720   1.000   P
04         12.500   1.000   S
# 2022  9 15  2 43 52.45  26.6543  102.9183    2.49  0.00  0.00  0.00  9.68        99
08          1.570   1.000   P
08          4.360   1.000   S
04         13.710   1.000   S
02         12.970   1.000   P
02         19.630   1.000   S
# 2022  9 15  3  5 20.03  27.0193  103.0107   17.24  0.00  0.85  1.26  0.08       100
06          3.430   1.000   P
06          5.190   1.000   S
03          5.560   1.000   P
03          9.030   1.000   S
04          9.310   1.000   S
# 2022  9 15  3 18  1.56  27.2080  102.9447    5.03  0.00  0.76  2.86  0.09       101
02          1.360   1.000   P
02          2.380   1.000   S
06          4.930   1.000   P
06          8.120   1.000   S
04          5.350   1.000   P
# 2022  9 15  5 20 33.73  26.7868  102.8990    2.52  0.00  1.15  1.91  0.14       102
08          3.270   1.000   S
01          2.750   1.000   P
01          4.520   1.000   S
10          5.330   1.000   P
03         16.140   1.000   S
# 2022  9 15  5 41 45.94  26.9432  102.9058    2.50  0.00  0.00  0.00  6.91       103
06          0.530   1.000   S
08          6.800   1.000   S
02          6.660   1.000   P
02         10.600   1.000   S
# 2022  9 15  6 14  7.12  26.8380  102.8223    2.49  0.00  0.00  0.00  4.74       104
06          2.400   1.000   P
06          4.100   1.000   S
08          2.780   1.000   P
08          4.260   1.000   S
07          7.390   1.000   P
02         16.060   1.000   S
# 2022  9 15  8  5 55.19  26.7682  102.9900    2.00  0.00  0.00  0.00  2.92       105
08          0.560   1.000   S
01          1.950   1.000   P
01          3.370   1.000   S
06         12.250   1.000   P
# 2022  9 15 10 34 43.83  26.8480  103.0402    2.51  0.00  7.94  7.76  0.93       106
07          1.440   1.000   P
07          2.220   1.000   S
06          2.820   1.000   P
06          4.680   1.000   S
02          9.360   1.000   P
02         12.490   1.000   S
03          7.930   1.000   P
# 2022  9 15 13 14  0.72  26.9303  102.8372    3.15  0.00  6.47  6.57  0.58       107
06          1.270   1.000   P
06          4.080   1.000   S
03          7.270   1.000   P
03         10.840   1.000   S
10         14.160   1.000   S
# 2022  9 15 22 35  8.67  26.6700  103.0372    2.36  0.00  0.00  0.00  9.91       108
08          0.800   1.000   P
08          2.720   1.000   S
07          4.960   1.000   P
07          6.330   1.000   S
04         15.850   1.000   S
# 2022  9 16  4 13 18.55  27.2333  102.9583    5.84  0.00  7.16  9.16  0.16       109
03          1.440   1.000   S
02          1.440   1.000   S
02          1.440   1.000   P
10         12.920   1.000   P
# 2022  9 16  5  3 53.44  26.8682  102.9798    9.24  0.00  1.99  3.73  0.20       110
06          3.130   1.000   P
06          3.980   1.000   S
07          3.090   1.000   P
07          5.290   1.000   S
03         12.930   1.000   S
# 2022  9 16  8 39 59.29  26.7355  103.0052    2.49  0.00  0.00  0.00  0.29       111
08          0.700   1.000   S
08          0.700   1.000   P
10          4.490   1.000   P
01          4.050   1.000   P
# 2022  9 16 19 15 34.73  26.9942  102.8103   16.22  0.00  0.86  1.00  0.01       112
04          3.270   1.000   P
04          4.910   1.000   S
06          3.480   1.000   P
06          5.340   1.000   S
10          9.590   1.000   P
10         15.990   1.000   S
# 2022  9 17  9 41 32.87  26.9928  102.6860    8.03  0.00  0.97  8.20  0.09       113
06          4.410   1.000   P
06          7.470   1.000   S
03          6.890   1.000   P
08          7.250   1.000   P
08         12.190   1.000   S
# 2022  9 17 17  3 37.03  26.9702  102.8568    2.50  0.00  3.54  5.39  0.42       114
06          1.910   1.000   S
01          1.810   1.000   P
01          3.130   1.000   S
02          5.940   1.000   P
02         10.460   1.000   S
# 2022  9 18  1 55  7.80  26.9997  102.9918    4.70  0.00  7.02  2.83  0.79       115
06          0.390   1.000   P
06          2.970   1.000   S
04          6.190   1.000   P
04          7.520   1.000   S
08          4.260   1.000   P
08          8.660   1.000   S
# 2022  9 18  7 46 37.40  26.6007  102.9960   31.13  0.00  4.33  3.26  0.60       116
10          5.910   1.000   P
10          7.540   1.000   S
07         12.240   1.000   S
04         18.080   1.000   S
03         12.520   1.000   P
# 2022  9 18 10 47 32.18  27.2363  102.8587    2.90  0.00  4.65  7.81  0.55       117
03          1.210   1.000   P
03          2.030   1.000   S
04          4.080   1.000   P
04          8.230   1.000   S
01          7.060   1.000   P
01         10.690   1.000   S
08         11.340   1.000   P
# 2022  9 18 15 13 15.91  26.9245  103.0243    2.47  0.00  0.00  0.00  2.54       118
06          4.080   1.000   S
07          4.080   1.000   S
08          4.080   1.000   P
08          4.080   1.000   S
# 2022  9 18 15 21  0.70  26.9647  103.0325    4.13  0.00  2.85  6.34  0.82       119
06          1.250   1.000   P
06          3.400   1.000   S
02          6.960   1.000   P
02          8.800   1.000   S
04         10.220   1.000   S
10         13.200   1.000   S
# 2022  9 18 22 44 13.04  26.8928  103.0915   11.07  0.00  1.84  5.02  0.02       120
01          3.520   1.000   P
01          5.600   1.000   S
10          6.730   1.000   P
10         11.090   1.000   S
02          7.280   1.000   P
# 2022  9 19 11 51 35.77  27.4948  103.0248   27.91  0.00  3.84  2.78  0.32       121
03          6.440   1.000   P
03         11.270   1.000   S
04         18.450   1.000   S
08         24.020   1.000   S
10         18.450   1.000   P
# 2022  9 19 13 39 24.90  27.1698  103.1665    2.48  0.00  0.00  0.00  9.42       122
03          4.790   1.000   P
03          8.130   1.000   S
01          4.690   1.000   P
01         11.220   1.000   S
10         21.600   1.000   S
# 2022  9 19 19  4 12.00  26.8303  103.2293    2.36  0.00  0.00  0.00  3.36       123
07          0.970   1.000   P
07          2.680   1.000   S
08          5.960   1.000   P
08          7.250   1.000   S
10          5.820   1.000   P
# 2022  9 19 20 44 16.16  26.7478  103.0940    2.50  0.00  1.28  1.51  0.18       124
08          2.080   1.000   P
08          2.860   1.000   S
07          1.980   1.000   P
07          3.460   1.000   S
02         17.040   1.000   S
# 2022  9 20 13 48 57.26  26.6887  102.9187    2.49  0.00  0.00  0.00  4.80       125
08          1.360   1.000   P
08          2.260   1.000   S
10          5.620   1.000   S
07          6.060   1.000   P
07          9.320   1.000   S
# 2022  9 20 14 11  4.13  26.7598  103.0913    4.57  0.00  0.98  1.54  0.24       126
07          1.850   1.000   P
07          3.340   1.000   S
10          4.490   1.000   P
10          6.570   1.000   S
04         14.340   1.000   S
# 2022  9 20 16  3 39.95  26.8397  102.8853    3.11  0.00  7.81  5.35  0.67       127
01          1.240   1.000   P
01          3.590   1.000   S
04          5.730   1.000   P
04          7.270   1.000   S
02         14.630   1.000   S
# 2022  9 20 16 13 20.14  26.8408  103.1525    2.51  0.00  6.99  5.70  0.76       128
01          5.560   1.000   P
01          7.310   1.000   S
02         14.600   1.000   S
# 2022  9 20 21 23 40.34  26.6677  103.0135    2.50  0.00  0.00  0.00  6.05       129
08          1.680   1.000   P
08          2.990   1.000   S
07          4.590   1.000   P
07          6.720   1.000   S
02         19.380   1.000   S
# 2022  9 20 22  3 50.48  27.3657  102.8700    4.61  0.00  6.40  5.09  0.41       130
03          2.260   1.000   P
03          4.600   1.000   S
02          4.260   1.000   P
02          5.320   1.000   S
01          8.860   1.000   P
# 2022  9 21  4 26 56.98  27.0355  102.7923    2.49  0.00  0.00  0.00  5.76       131
04          0.740   1.000   P
04          1.840   1.000   S
02          9.520   1.000   S
07          6.590   1.000   P
10         11.140   1.000   P
# 2022  9 21 13 26 32.28  27.0863  103.1472    4.20  0.00  2.80  4.93  0.21       132
02          3.480   1.000   P
02          7.710   1.000   S
06          7.710   1.000   S
08          7.710   1.000   P
04          7.710   1.000   P
# 2022  9 21 14 17 54.68  27.1880  102.8492    2.51  0.00  5.20  7.56  0.49       133
02          2.570   1.000   P
02          5.180   1.000   S
01          5.160   1.000   P
01          9.040   1.000   S
10         13.420   1.000   P
# 2022  9 21 20 26 55.01  26.8157  103.0255    3.97  0.00  0.92  1.71  0.09       134
08          1.460   1.000   P
08          2.550   1.000   S
01          2.920   1.000   P
01          4.920   1.000   S
02          8.800   1.000   P
03         14.900   1.000   S
# 2022  9 22 11 38 55.25  26.8977  102.9815    2.48  0.00  0.00  0.00  2.92       135
08          2.740   1.000   P
08          4.750   1.000   S
07          3.160   1.000   P
07          4.910   1.000   S
04          5.420   1.000   P
# 2022  9 22 18 34 26.28  26.5205  103.1188    2.51  0.00  7.43  9.17  0.78       136
10          0.570   1.000   P
10          1.440   1.000   S
07          6.020   1.000   P
07         10.800   1.000   S
02         15.140   1.000   P
# 2022  9 23  9 47 46.43  27.1633  103.0502    4.91  0.00  3.24  5.72  0.69       137
02          1.890   1.000   P
02          3.350   1.000   S
04          7.520   1.000   P
04         10.090   1.000   S
10         11.090   1.000   P
# 2022  9 24  1  3  0.31  26.7392  103.2602    2.51  0.00  8.48  3.91  0.83       138
07          2.870   1.000   P
07          3.790   1.000   S
02         19.680   1.000   S
04         19.680   1.000   S
03         19.680   1.000   S
# 2022  9 24  1 23 22.14  27.0560  102.9040   19.48  0.00  6.54  3.37  0.38       139
01          4.890   1.000   P
01          6.260   1.000   S
07          6.610   1.000   P
08          6.480   1.000   P
08         11.490   1.000   S
# 2022  9 24  1 45 33.26  27.2920  103.0208    4.35  0.00  5.49  4.90  0.36       140
03          1.830   1.000   P
03          3.160   1.000   S
06          7.600   1.000   P
06         11.500   1.000   S
07         15.380   1.000   S
# 2022  9 24  3 15 32.35  27.0852  102.9137    4.91  0.00  7.87  2.36  0.19       141
06          2.410   1.000   P
06          4.010   1.000   S
02          6.080   1.000   S
08          7.110   1.000   P
08         11.170   1.000   S
# 2022  9 24 23 25 38.61  27.0032  102.9867    3.79  0.00  9.11  6.92  0.42       142
01          1.930   1.000   P
01          3.930   1.000   S
07          7.150   1.000   S
10         15.070   1.000   S
# 2022  9 25  1 31  0.65  26.7060  103.0838   27.76  0.00  5.96  4.33  0.76       143
08          4.930   1.000   P
08          6.650   1.000   S
07          8.710   1.000   S
10          9.270   1.000   S
01          6.430   1.000   P
01         12.370   1.000   S
# 2022  9 25 23 15 54.59  26.9115  102.9410    4.71  0.00  5.23  8.33  0.47       144
06          0.970   1.000   P
06          2.030   1.000   S
08          3.340   1.000   P
07          4.720   1.000   P
07          5.970   1.000   S
# 2022  9 26  5 14 10.78  26.7108  103.0102    2.50  0.00  0.00  0.00  4.07       145
08          0.220   1.000   S
10          2.250   1.000   P
10          3.210   1.000   S
06          5.940   1.000   P
06          8.740   1.000   S
# 2022  9 26 20 53 48.44  26.8405  103.1423    2.51  0.00  5.18  3.76  0.60       146
07          0.500   1.000   S
01          5.150   1.000   P
01          7.110   1.000   S
02         14.530   1.000   S
# 2022  9 26 22  8 37.94  27.2062  102.8595    2.48  0.00  0.00  0.00  5.37       147
03          1.620   1.000   P
03          2.240   1.000   S
06          4.860   1.000   P
06          7.260   1.000   S
08         16.260   1.000   S
# 2022  9 27  0 14 59.52  26.6037  103.1770    3.23  0.00  2.73  3.69  0.23       148
10          2.530   1.000   P
10          4.240   1.000   S
07          5.080   1.000   P
07          7.860   1.000   S
03         23.220   1.000   S
# 2022  9 27  9 25 16.39  27.0002  102.9660    4.85  0.00  1.47  2.22  0.35       149
01          1.840   1.000   P
01          3.030   1.000   S
04          4.860   1.000   P
04          7.230   1.000   S
02          5.530   1.000   P
02          7.950   1.000   S
# 2022  9 27 12 57 33.95  26.5552  102.9233   23.85  0.00  3.83  4.44  0.30       150
10          4.960   1.000   P
10          6.990   1.000   S
07         12.610   1.000   S
01          7.640   1.000   P
01         13.590   1.000   S
# 2022  9 27 14  4 55.75  26.8165  103.1663   10.61  0.00  5.41  2.71  0.45       151
07          2.690   1.000   S
01          4.510   1.000   P
01          8.890   1.000   S
10          6.140   1.000   P
10          8.990   1.000   S
# 2022  9 27 18 24  8.16  27.0830  102.6868    5.00  0.00  2.02  0.95  0.18       152
04          1.470   1.000   P
04          2.110   1.000   S
06          5.010   1.000   P
06          8.300   1.000   S
02         10.890   1.000   S
# 2022  9 27 19 23 18.68  27.2422  102.9592    5.63  0.00  6.53  8.59  0.11       153
03          1.310   1.000   S
03          1.310   1.000   P
02          1.310   1.000   S
02          1.310   1.000   P
10         22.400   1.000   S
# 2022  9 27 22  3 15.47  27.1762  102.6543    2.44  0.00  0.00  0.00  1.72       154
04          4.520   1.000   P
04          4.520   1.000   S
03          4.520   1.000   P
02          8.950   1.000   P
08          9.790   1.000   P
# 2022  9 28  2 43 45.28  27.0317  102.9093    2.49  0.00  0.00  0.00  3.82       155
06          2.040   1.000   S
03          4.830   1.000   P
02          7.670   1.000   S
08          7.220   1.000   P
08          9.540   1.000   S
# 2022  9 28  2 53 18.37  27.0432  102.7538    7.97  0.00  8.82  8.94  0.30       156
04          1.620   1.000   S
04          1.620   1.000   P
03          5.760   1.000   P
03          7.810   1.000   S
08          6.960   1.000   P
# 2022  9 28 11  7 43.68  26.8650  102.9232    2.43  0.00  0.00  0.00  2.89       157
06          1.920   1.000   P
06          3.000   1.000   S
10          4.290   1.000   P
10         10.230   1.000   S
# 2022  9 28 11 41 58.81  27.3618  102.8067    2.52  0.00  6.40  8.93  0.71       158
02          4.520   1.000   P
02          6.440   1.000   S
04         10.270   1.000   S
07         20.490   1.000   S
10         28.120   1.000   S
# 2022  9 28 15 15 11.10  27.0133  102.8227    2.49  0.00  0.00  0.00  0.71       159
04          2.280   1.000   P
04          2.780   1.000   S
06          1.860   1.000   P
08          6.340   1.000   P
07          6.860   1.000   P
# 2022  9 28 17 43 35.70  26.7245  102.9652    2.51  0.00  1.88  1.99  0.34       160
10          3.570   1.000   P
01          3.350   1.000   P
01          6.900   1.000   S
04         12.900   1.000   S
02         17.700   1.000   S
# 2022  9 28 20 50 44.01  26.6815  103.1377    2.52  0.00  2.31  3.62  0.46       161
10          3.010   1.000   P
10          4.400   1.000   S
08          4.820   1.000   S
07          3.520   1.000   P
07          4.560   1.000   S
03         20.450   1.000   S
# 2022  9 28 22 47 37.89  26.8945  103.0987    4.92  0.00  8.98  7.09  0.40       162
07          1.470   1.000   P
07          2.230   1.000   S
06          3.930   1.000   P
06          5.230   1.000   S
10         11.080   1.000   S
# 2022  9 29  8 50 23.23  27.1833  102.8675    8.60  0.00  2.02  4.98  0.21       163
03          2.090   1.000   P
03          3.160   1.000   S
02          3.440   1.000   P
02          4.730   1.000   S
01          9.170   1.000   S
08          8.550   1.000   P
# 2022  9 29  9 52 36.50  27.0473  102.8560    2.48  0.00  0.00  0.00  6.92       164
04          2.190   1.000   P
01          3.740   1.000   S
07          7.050   1.000   P
07         10.460   1.000   S
10         18.010   1.000   S
# 2022  9 29 16 30 22.74  26.8500  102.9758   16.21  0.00  1.79  4.19  0.24       165
08          3.390   1.000   P
04          6.780   1.000   P
04         10.080   1.000   S
10          6.010   1.000   P
03         13.580   1.000   S
# 2022  9 29 18 31 36.90  27.0127  102.7860    2.50  0.00  0.00  0.00  4.62       166
06          2.600   1.000   P
06          4.180   1.000   S
01          3.650   1.000   P
01          4.360   1.000   S
07         13.920   1.000   S
10         10.200   1.000   P
# 2022  9 29 19 13 42.86  26.9938  102.8007   13.11  0.00  4.57  8.15  0.54       167
04          4.060   1.000   S
01          4.310   1.000   P
01          4.900   1.000   S
03          5.070   1.000   P
03         10.120   1.000   S
