# 2022 12  8  8 58 10.95  26.6772  103.2045    2.51  0.00  6.34  9.62  0.93       335
10          4.310   1.000   P
10          6.150   1.000   S
08          2.780   1.000   P
08          6.990   1.000   S
04         12.520   1.000   P
04         19.580   1.000   S
# 2022 12  8  9 56 28.85  26.7732  103.2918   23.96  0.00  5.38  3.65  0.51       336
07          5.670   1.000   P
07          7.400   1.000   S
08         11.140   1.000   S
10         11.140   1.000   S
04         11.140   1.000   P
# 2022 12  8 12 28 11.93  26.9348  103.1247    7.95  0.00  2.48  4.47  0.32       337
07          3.730   1.000   S
06          4.060   1.000   P
06          6.100   1.000   S
10          7.260   1.000   P
10         12.630   1.000   S
# 2022 12  8 13 28 36.83  26.7497  103.1440    2.50  0.00  6.13  7.71  0.71       338
07          1.560   1.000   P
07          2.430   1.000   S
10          4.360   1.000   P
10          6.530   1.000   S
06          7.100   1.000   P
06          9.280   1.000   S
# 2022 12 10  5  3 59.63  27.1495  102.9545    9.27  0.00  3.22  7.99  0.26       339
02          2.290   1.000   P
02          4.170   1.000   S
07         11.530   1.000   S
08          8.050   1.000   P
10         18.950   1.000   S
# 2022 12 10  9 33 14.65  27.0800  103.0177   11.64  0.00  2.98  9.76  0.64       340
06          5.340   1.000   S
02          5.340   1.000   S
02          5.340   1.000   P
07          5.340   1.000   P
04          5.340   1.000   P
# 2022 12 11  7  3 23.76  26.8430  103.1275    5.01  0.00  2.73  3.55  0.24       341
07          0.640   1.000   S
07          0.800   1.000   P
08          3.540   1.000   P
08          4.860   1.000   S
04         13.740   1.000   S
# 2022 12 11 11 51 29.96  26.8297  103.2925    5.03  0.00  1.47  6.71  0.13       342
07          3.030   1.000   P
07          4.730   1.000   S
08          5.530   1.000   P
08          9.650   1.000   S
02         16.510   1.000   S
# 2022 12 11 18  3 12.61  26.9385  102.6720    1.21  0.00  0.00  0.00  1.53       343
04          0.080   1.000   S
06          7.380   1.000   P
08          7.380   1.000   P
02          7.380   1.000   P
10          7.380   1.000   P
# 2022 12 16 20 19 15.85  26.6715  103.0358    4.98  0.00  1.20  1.55  0.30       344
08          2.230   1.000   P
08          3.070   1.000   S
10          2.250   1.000   P
10          3.670   1.000   S
07          4.340   1.000   P
07          5.870   1.000   S
# 2022 12 17 10 40 19.58  26.9268  102.9330    2.48  0.00  0.00  0.00  6.52       345
08          1.620   1.000   P
08          5.120   1.000   S
02         10.860   1.000   S
10          9.320   1.000   P
10         13.200   1.000   S
# 2023  1  1  1  2 47.24  26.8663  102.9577   15.21  0.00  1.76  1.53  0.16       346
01          2.810   1.000   P
01          4.250   1.000   S
05          3.630   1.000   P
05          6.080   1.000   S
09          4.990   1.000   P
09          7.430   1.000   S
# 2023  1  1  2 33 25.20  26.9272  102.7025   20.80  0.00  4.66  6.89  0.53       347
05          4.260   1.000   P
05          7.920   1.000   S
08          8.180   1.000   P
08         11.090   1.000   S
02         14.320   1.000   S
# 2023  1  1  2 55 37.21  26.7158  102.7663    2.50  0.00  5.53  4.99  0.59       348
09          0.100   1.000   P
09          0.820   1.000   S
08          4.450   1.000   P
08          7.520   1.000   S
10          6.960   1.000   P
10          9.790   1.000   S
# 2023  1  1  3 15  6.51  26.8795  102.9208    4.39  0.00  8.96  1.26  0.24       349
01          0.560   1.000   P
01          2.070   1.000   S
08          3.150   1.000   P
08          4.750   1.000   S
02          7.630   1.000   P
# 2023  1  1  3 31  7.80  26.7745  103.0375    4.09  0.00  3.30  3.22  0.37       350
08          1.440   1.000   S
10          4.370   1.000   P
06          4.760   1.000   P
06          7.630   1.000   S
02          9.110   1.000   P
# 2023  1  1  5 59 14.53  26.5587  103.0803   18.61  0.00  3.34  1.78  0.18       351
10          3.600   1.000   P
10          4.570   1.000   S
07          6.140   1.000   P
07         10.410   1.000   S
02         22.630   1.000   S
# 2023  1  1  7 14 40.10  27.0513  102.8105    2.54  0.00  1.39  1.59  0.31       352
05          1.310   1.000   P
05          2.860   1.000   S
06          3.190   1.000   P
03          4.530   1.000   P
03          8.000   1.000   S
02          8.760   1.000   S
09          6.420   1.000   P
09         11.520   1.000   S
# 2023  1  1  7 43 33.39  26.8590  102.9227    2.49  0.00  0.00  0.00  9.23       353
06          1.780   1.000   P
07          6.770   1.000   S
10          6.630   1.000   P
03         13.870   1.000   S
02         12.640   1.000   S
# 2023  1  1  9  5 45.96  26.9643  102.9485    3.88  0.00  3.94  4.08  0.34       354
05          1.320   1.000   P
05          3.010   1.000   S
09          5.490   1.000   P
09          9.890   1.000   S
02          9.600   1.000   S
03          6.510   1.000   P
03          9.670   1.000   S
# 2023  1  1  9 39 52.37  26.9067  102.9083    2.50  0.00  2.21  3.58  0.64       355
01          0.640   1.000   S
09          7.620   1.000   S
07          7.620   1.000   S
03          7.620   1.000   P
# 2023  1  1  9 44 54.16  26.8083  103.3430    0.50  0.00  0.00  0.00  6.74       356
09         10.680   1.000   S
02          5.580   1.000   S
03         14.060   1.000   P
# 2023  1  1 10 43 19.71  26.8958  103.0767    8.09  0.00  2.50  9.73  0.12       357
07          2.100   1.000   P
06          3.540   1.000   P
06          5.060   1.000   S
02         11.920   1.000   S
# 2023  1  1 12 17 30.59  27.0998  103.0520    4.34  0.00  3.26  2.91  0.57       358
02          2.990   1.000   P
02          5.410   1.000   S
03          3.940   1.000   P
03          6.820   1.000   S
07          4.820   1.000   P
08          8.030   1.000   P
08         10.070   1.000   S
09          8.950   1.000   P
09         14.310   1.000   S
# 2023  1  1 12 28 34.45  26.9540  102.8310   33.34  0.00  7.67  4.74  0.59       359
01          5.360   1.000   P
01         10.270   1.000   S
08         11.430   1.000   S
07          8.590   1.000   P
07         12.130   1.000   S
03          7.920   1.000   P
# 2023  1  1 15 51 55.68  26.8827  102.7283    2.55  0.00  1.41  2.30  0.33       360
05          3.230   1.000   P
05          4.800   1.000   S
09          3.660   1.000   P
09          5.880   1.000   S
01          3.470   1.000   P
01          6.300   1.000   S
06          4.030   1.000   P
06          7.560   1.000   S
07          7.840   1.000   P
07         12.240   1.000   S
02          9.060   1.000   P
02         14.740   1.000   S
# 2023  1  1 16 22 15.22  27.1090  102.9197    4.85  0.00  1.11  1.56  0.38       361
05          2.810   1.000   P
05          3.740   1.000   S
06          3.360   1.000   P
06          4.460   1.000   S
03          3.090   1.000   P
03          4.880   1.000   S
02          3.490   1.000   P
02          4.640   1.000   S
01          4.210   1.000   P
07          6.740   1.000   P
07         10.770   1.000   S
08          7.310   1.000   P
08         13.120   1.000   S
09          7.760   1.000   P
# 2023  1  1 16 27  1.39  27.3530  102.9273    2.43  0.00  0.00  0.00  8.29       362
02          2.460   1.000   P
02          3.940   1.000   S
01          8.590   1.000   P
01         14.530   1.000   S
07         18.500   1.000   S
# 2023  1  1 17  9 11.87  26.9255  102.9473   12.47  0.00  1.52  1.61  0.18       363
01          2.260   1.000   P
01          2.850   1.000   S
06          2.570   1.000   P
05          2.510   1.000   P
05          4.390   1.000   S
09          5.220   1.000   P
09          8.500   1.000   S
# 2023  1  1 17 54 30.01  26.9462  102.9648   13.33  0.00  1.83  1.73  0.23       364
06          2.700   1.000   P
06          3.910   1.000   S
01          2.190   1.000   P
01          3.270   1.000   S
05          2.750   1.000   P
05          4.450   1.000   S
09          5.820   1.000   P
09          9.430   1.000   S
# 2023  1  1 19 35  1.42  27.0250  102.9498    3.15  0.00  7.32  6.49  0.71       365
05          0.490   1.000   P
05          3.440   1.000   S
04          4.980   1.000   P
04          6.390   1.000   S
08          5.700   1.000   P
# 2023  1  1 19 49  4.78  27.3880  102.9335   13.64  0.00  2.11  2.19  0.35       366
03          3.840   1.000   P
03          5.760   1.000   S
02          3.630   1.000   P
02          5.570   1.000   S
04          7.520   1.000   P
05          8.600   1.000   P
05         12.960   1.000   S
01          9.200   1.000   P
07         19.380   1.000   S
09         22.100   1.000   S
# 2023  1  1 19 52 39.88  27.0610  102.7137   11.91  0.00  1.47  4.30  0.16       367
05          3.570   1.000   P
05          5.870   1.000   S
06          4.710   1.000   P
06          7.520   1.000   S
01          5.120   1.000   P
03          5.860   1.000   P
03          8.900   1.000   S
02          6.570   1.000   P
09          6.800   1.000   P
# 2023  1  1 22 43 55.12  27.0908  102.7917    2.51  0.00  1.93  2.96  0.45       368
05          2.450   1.000   P
05          4.220   1.000   S
06          3.250   1.000   P
06          5.500   1.000   S
03          3.860   1.000   P
03          7.320   1.000   S
01          3.460   1.000   P
01          8.120   1.000   S
09          7.550   1.000   P
09         13.340   1.000   S
07         13.920   1.000   S
# 2023  1  2  0 12 16.96  26.7125  102.9597    2.52  0.00  5.90  5.49  0.46       369
08          0.620   1.000   P
08          1.620   1.000   S
09          4.960   1.000   S
05          6.640   1.000   P
05          9.720   1.000   S
# 2023  1  2  2 44 49.74  26.9045  102.8143    3.15  0.00  1.99  3.59  0.62       370
05          1.180   1.000   P
05          3.640   1.000   S
06          5.140   1.000   S
04          4.400   1.000   P
04          5.240   1.000   S
09          4.410   1.000   P
09          6.020   1.000   S
02          7.560   1.000   P
02         13.180   1.000   S
# 2023  1  2  7 38 34.18  27.1025  102.9200   11.45  0.00  0.74  1.79  0.20       371
05          3.030   1.000   P
05          4.800   1.000   S
06          3.460   1.000   P
06          4.960   1.000   S
03          3.380   1.000   P
03          5.570   1.000   S
02          3.560   1.000   P
02          6.540   1.000   S
01          4.340   1.000   P
01          6.920   1.000   S
07          6.420   1.000   P
07         10.970   1.000   S
08         11.620   1.000   S
09          7.980   1.000   P
09         13.300   1.000   S
# 2023  1  2  9 13 39.82  26.8103  102.7263    4.73  0.00  8.21  8.20  0.86       372
09          1.830   1.000   P
09          3.440   1.000   S
05          6.900   1.000   S
08          6.860   1.000   P
08          8.120   1.000   S
# 2023  1  2  9 54  6.40  26.9852  103.0627    7.53  0.00  0.95  3.98  0.06       373
01          4.820   1.000   S
05          3.790   1.000   P
05          6.120   1.000   S
03          9.870   1.000   S
09         11.860   1.000   S
# 2023  1  2 11  8 46.57  26.5518  103.0782    2.26  0.00  0.00  0.00  7.12       374
07          4.410   1.000   P
07          8.930   1.000   S
01          5.870   1.000   P
04         19.520   1.000   S
02         13.630   1.000   P
# 2023  1  2 11 33 26.41  26.9795  102.9350   13.75  0.00  3.53  5.35  0.54       375
06          2.010   1.000   P
06          3.810   1.000   S
04          5.470   1.000   P
04          6.660   1.000   S
02          9.490   1.000   S
# 2023  1  2 11 33 48.94  26.5765  102.9613   10.72  0.00  1.13  3.49  0.14       376
08          4.080   1.000   P
08          6.420   1.000   S
09          4.460   1.000   P
09          7.270   1.000   S
01         11.920   1.000   S
05         13.700   1.000   S
# 2023  1  2 12 24  4.58  26.3900  102.9897   14.04  0.00  2.93  5.97  0.37       377
10          4.720   1.000   P
10          6.410   1.000   S
08          6.970   1.000   P
09          7.620   1.000   P
09         12.680   1.000   S
02         28.100   1.000   S
# 2023  1  2 13 11 14.52  27.1370  103.1720   13.66  0.00  2.07  6.58  0.43       378
02          4.090   1.000   P
02          7.010   1.000   S
03          5.590   1.000   P
03          8.580   1.000   S
06          6.870   1.000   P
07          6.460   1.000   P
07          9.920   1.000   S
01          5.570   1.000   P
01         11.040   1.000   S
05          6.390   1.000   P
05         10.450   1.000   S
09         10.440   1.000   P
09         17.350   1.000   S
# 2023  1  2 13 15 59.38  26.8177  102.9473   17.02  0.00  1.08  1.72  0.32       379
08          3.130   1.000   P
08          5.060   1.000   S
01          3.200   1.000   P
01          5.040   1.000   S
06          4.430   1.000   P
06          7.160   1.000   S
09          4.470   1.000   P
09          6.520   1.000   S
07          4.580   1.000   P
07          6.610   1.000   S
05          4.230   1.000   P
05          8.080   1.000   S
03          8.950   1.000   P
03         14.400   1.000   S
# 2023  1  2 13 51 42.29  26.4907  102.9725    8.31  0.00  5.65  9.90  1.23       380
10          1.980   1.000   P
10          3.670   1.000   S
09          5.270   1.000   P
09         10.050   1.000   S
07          9.650   1.000   P
07         12.600   1.000   S
01          8.320   1.000   P
01         14.550   1.000   S
05          9.280   1.000   P
05         17.670   1.000   S
03         15.610   1.000   P
03         22.360   1.000   S
# 2023  1  2 14 42 20.21  26.8333  102.9227   22.11  0.00  1.16  2.22  0.38       381
01          3.680   1.000   P
01          5.750   1.000   S
08          4.120   1.000   P
08          7.120   1.000   S
06          4.370   1.000   P
09          5.050   1.000   P
09          7.390   1.000   S
05          4.910   1.000   P
05          8.210   1.000   S
07          5.170   1.000   P
07          8.220   1.000   S
03         14.240   1.000   S
02         15.290   1.000   S
# 2023  1  2 15 26 49.46  26.8365  102.9390   19.78  0.00  1.07  1.63  0.37       382
01          3.610   1.000   P
01          5.770   1.000   S
08          3.590   1.000   P
08          5.440   1.000   S
06          4.350   1.000   P
06          7.020   1.000   S
05          4.940   1.000   P
05          7.600   1.000   S
09          4.940   1.000   P
09          6.950   1.000   S
07          4.890   1.000   P
07          7.440   1.000   S
10          7.130   1.000   P
10         10.890   1.000   S
02          7.990   1.000   P
02         14.380   1.000   S
03          7.890   1.000   P
03         14.500   1.000   S
# 2023  1  2 15 49 15.63  27.1553  102.8725    2.00  0.00  0.00  0.00  4.31       383
03          2.120   1.000   P
03          3.330   1.000   S
04          1.900   1.000   S
09         15.400   1.000   P
# 2023  1  2 16  1  7.55  27.0875  103.1670    3.12  0.00  1.08  1.38  0.26       384
02          4.340   1.000   P
02          8.130   1.000   S
06          5.100   1.000   P
07          8.090   1.000   S
03          5.670   1.000   P
03          9.090   1.000   S
01          5.510   1.000   P
01          9.450   1.000   S
05          6.130   1.000   P
05          9.400   1.000   S
09          9.730   1.000   P
09         17.080   1.000   S
10         18.200   1.000   S
# 2023  1  2 18 13 14.62  27.0020  102.8945    7.98  0.00  0.90  9.44  0.07       385
04          5.370   1.000   S
03          5.370   1.000   P
08          5.370   1.000   P
02          5.370   1.000   P
07          5.370   1.000   P
# 2023  1  2 18 17 20.09  26.6483  103.0038   33.06  0.00  5.69  4.75  1.17       386
10          4.520   1.000   P
10          7.920   1.000   S
08          8.070   1.000   P
08          9.950   1.000   S
09          7.250   1.000   P
09         10.330   1.000   S
07          7.560   1.000   P
07         10.480   1.000   S
03         11.230   1.000   P
# 2023  1  2 19 24 45.26  26.8748  102.9895    4.97  0.00  0.85  1.35  0.08       387
08          2.530   1.000   P
08          4.110   1.000   S
07          2.890   1.000   P
04          5.910   1.000   P
04          9.590   1.000   S
# 2023  1  2 19 33 14.56  26.7487  102.8978   18.46  0.00  1.25  1.37  0.09       388
08          5.430   1.000   S
06          5.430   1.000   P
10          5.430   1.000   P
07          5.430   1.000   P
05          5.430   1.000   P
# 2023  1  2 20 14 12.90  27.1178  102.8815    9.24  0.00  1.61  5.07  0.33       389
05          2.990   1.000   P
05          4.620   1.000   S
03          3.970   1.000   S
06          3.640   1.000   P
06          5.580   1.000   S
02          4.060   1.000   P
02          6.040   1.000   S
07         11.660   1.000   S
09          8.210   1.000   P
# 2023  1  2 20 38 11.02  26.9255  102.8503   14.20  0.00  1.77  0.80  0.10       390
05          2.870   1.000   P
05          3.920   1.000   S
06          2.800   1.000   P
06          4.410   1.000   S
03          6.860   1.000   P
# 2023  1  2 20 43 13.48  26.9933  102.8958   23.76  0.00  1.47  2.27  0.16       391
01          6.510   1.000   S
07          6.510   1.000   P
02          6.510   1.000   P
09          6.510   1.000   P
# 2023  1  2 20 57 43.89  26.6517  102.9748    2.51  0.00  2.67  7.61  0.58       392
10          3.990   1.000   S
09          4.310   1.000   P
09          5.380   1.000   S
07          4.390   1.000   P
02         20.690   1.000   S
# 2023  1  2 22  9 19.57  27.1595  103.1432    5.39  0.00  0.89  8.73  0.09       393
02          3.210   1.000   P
02          5.340   1.000   S
03          4.510   1.000   P
03          7.570   1.000   S
05         10.220   1.000   S
07          6.580   1.000   P
07         10.680   1.000   S
# 2023  1  3  0 24 47.18  26.4835  103.1477   25.42  0.00  2.76  1.37  0.11       394
10          4.910   1.000   P
10          7.660   1.000   S
07          7.920   1.000   P
01          9.900   1.000   P
02         15.350   1.000   P
# 2023  1  3  2 17 50.09  26.9620  102.8120    3.98  0.00  5.29  5.80  0.38       395
05          1.240   1.000   P
01          2.190   1.000   P
01          4.510   1.000   S
09          5.630   1.000   P
09          7.780   1.000   S
# 2023  1  3  3 32  1.47  27.1583  102.8533   13.85  0.00  1.51  1.96  0.28       396
03          3.020   1.000   P
03          4.910   1.000   S
02          4.260   1.000   P
02          6.350   1.000   S
05          3.970   1.000   P
05          6.290   1.000   S
06          4.690   1.000   P
06          7.880   1.000   S
01          5.280   1.000   P
01          9.050   1.000   S
07          7.970   1.000   P
07         12.530   1.000   S
08          8.610   1.000   P
08         14.340   1.000   S
09          8.780   1.000   P
09         14.720   1.000   S
10         11.910   1.000   P
# 2023  1  3  3 48 43.05  27.1218  102.9598   11.76  0.00  5.01  7.46  0.47       397
02          4.930   1.000   S
03          3.500   1.000   P
03          4.970   1.000   S
05          4.380   1.000   P
05          5.210   1.000   S
09          7.730   1.000   P
# 2023  1  3  5  5 14.92  26.7888  102.8233    2.52  0.00  9.00  9.81  0.57       398
09          1.200   1.000   P
09          2.750   1.000   S
05          5.060   1.000   P
05          6.470   1.000   S
06          7.080   1.000   S
# 2023  1  3  6  1 53.27  27.0538  102.7993    4.01  0.00  4.25  9.64  0.99       399
04          0.290   1.000   P
04          4.390   1.000   S
06          2.740   1.000   P
06          5.240   1.000   S
03          5.760   1.000   P
03          6.690   1.000   S
# 2023  1  3  7 33 51.72  26.8128  102.7147    5.00  0.00  9.45  3.63  0.46       400
09          2.400   1.000   P
09          3.840   1.000   S
04          7.150   1.000   S
03         15.430   1.000   S
02         11.080   1.000   P
# 2023  1  3  8 30 26.63  27.1835  102.8898    3.44  0.00  7.31  7.96  0.52       401
02          2.340   1.000   P
02          4.370   1.000   S
01          5.750   1.000   P
01          8.420   1.000   S
08         15.910   1.000   S
