# 2023  1  6 13 50 16.49  26.8240  102.9655   11.02  0.00  0.74  2.56  0.26       528
01          2.350   1.000   P
01          4.150   1.000   S
07          3.980   1.000   P
07          5.610   1.000   S
09          3.980   1.000   P
09          6.550   1.000   S
05          4.190   1.000   P
05          6.950   1.000   S
02          8.100   1.000   P
# 2023  1  6 14 37 17.53  26.8483  102.9607   14.28  0.00  1.05  1.72  0.37       529
01          2.520   1.000   P
01          4.840   1.000   S
08          2.550   1.000   P
08          4.430   1.000   S
06          3.730   1.000   P
07          3.570   1.000   P
07          6.150   1.000   S
05          3.740   1.000   P
05          6.550   1.000   S
09          4.030   1.000   P
09          7.090   1.000   S
10          6.990   1.000   P
10         10.490   1.000   S
02          8.020   1.000   P
02         13.060   1.000   S
03          8.360   1.000   P
03         13.500   1.000   S
# 2023  1  6 14 53 17.96  26.6933  103.0073    6.56  0.00  5.33  2.20  0.35       530
08          2.030   1.000   P
08          2.030   1.000   S
07          4.130   1.000   P
06         10.160   1.000   S
02         10.610   1.000   P
# 2023  1  6 15 51 54.94  27.1068  102.7865   22.98  0.00  2.68  2.07  0.25       531
05          4.790   1.000   P
05          7.320   1.000   S
06          5.600   1.000   P
06          8.640   1.000   S
03          5.080   1.000   P
09          8.500   1.000   P
09         13.210   1.000   S
10         19.400   1.000   S
# 2023  1  6 15 57 52.30  26.8903  102.8488   10.92  0.00  4.80  6.86  0.04       532
01          2.470   1.000   P
01          3.440   1.000   S
04          4.040   1.000   P
04          6.520   1.000   S
10         12.420   1.000   S
# 2023  1  6 16 14 42.71  26.8653  102.9228   16.51  0.00  1.18  2.44  0.30       533
01          3.100   1.000   P
01          4.890   1.000   S
08          3.710   1.000   P
08          5.520   1.000   S
09          4.910   1.000   P
09          6.960   1.000   S
07          4.650   1.000   P
04          8.330   1.000   S
# 2023  1  6 16 52 33.82  27.0645  102.6905    2.49  0.00  0.00  0.00  6.92       534
05          3.280   1.000   P
05          5.980   1.000   S
01          9.460   1.000   S
03          9.220   1.000   S
02          6.850   1.000   P
02         11.380   1.000   S
09          7.270   1.000   P
09         11.780   1.000   S
# 2023  1  6 16 55 14.57  26.9580  102.5095    3.24  0.00  1.21  1.47  0.06       535
04          4.250   1.000   P
04          7.380   1.000   S
02         10.530   1.000   P
02         17.570   1.000   S
10         12.350   1.000   P
# 2023  1  6 17  7 21.28  26.7938  102.9800    8.04  0.00  0.83  9.60  0.07       536
07          3.250   1.000   P
07          5.270   1.000   S
09          3.730   1.000   P
09          6.320   1.000   S
05          7.420   1.000   S
# 2023  1  6 18  5 52.58  26.7992  102.9725    8.10  0.00  0.93  8.56  0.05       537
01          2.930   1.000   P
01          4.570   1.000   S
07          3.430   1.000   P
07          5.340   1.000   S
09          3.720   1.000   P
09          6.140   1.000   S
# 2023  1  6 18 23 17.57  26.6352  102.9362    2.48  0.00  0.00  0.00  0.56       538
10          2.420   1.000   P
08          2.420   1.000   P
07          5.710   1.000   P
# 2023  1  6 19 28 33.02  26.9988  102.8665   12.68  0.00  2.21  1.90  0.57       539
05          1.700   1.000   P
05          3.650   1.000   S
06          3.120   1.000   P
01          3.520   1.000   S
02          5.420   1.000   P
02          9.780   1.000   S
09          5.650   1.000   P
09         10.380   1.000   S
07          6.980   1.000   P
07         10.240   1.000   S
# 2023  1  6 20 36  5.01  26.8228  102.9603   17.72  0.00  0.84  1.44  0.27       540
08          3.450   1.000   P
08          5.110   1.000   S
01          3.470   1.000   P
01          5.450   1.000   S
06          4.010   1.000   P
06          6.370   1.000   S
07          4.750   1.000   P
07          6.630   1.000   S
09          4.840   1.000   P
09          6.930   1.000   S
05          4.370   1.000   P
05          8.300   1.000   S
02          8.690   1.000   P
# 2023  1  6 21  5 31.89  27.0158  102.9213    2.49  0.00  0.00  0.00  1.23       541
06          0.490   1.000   P
06          1.410   1.000   S
05          0.700   1.000   P
05          1.620   1.000   S
01          1.420   1.000   P
09          8.190   1.000   P
# 2023  1  6 21  7 33.33  27.1572  102.8487   13.60  0.00  1.60  2.15  0.32       542
03          2.980   1.000   P
03          4.870   1.000   S
02          6.480   1.000   S
05          3.940   1.000   P
05          6.570   1.000   S
06          4.460   1.000   P
06          7.630   1.000   S
01          5.350   1.000   P
01          8.970   1.000   S
07          8.080   1.000   P
07         12.730   1.000   S
08          8.200   1.000   P
08         13.590   1.000   S
09          8.840   1.000   P
09         14.260   1.000   S
10         12.680   1.000   P
# 2023  1  6 21 11 25.41  26.9100  102.8640    2.68  0.00  0.99  2.88  0.43       543
01          1.010   1.000   P
01          2.280   1.000   S
05          1.470   1.000   P
05          3.290   1.000   S
06          1.190   1.000   P
06          2.940   1.000   S
04          3.070   1.000   P
09          4.250   1.000   P
09          7.290   1.000   S
03         12.710   1.000   S
# 2023  1  6 21 27 24.04  27.1168  103.1490    3.94  0.00  1.00  1.29  0.19       544
02          3.800   1.000   P
02          6.610   1.000   S
03          5.140   1.000   P
03          7.930   1.000   S
06          5.230   1.000   P
06          8.600   1.000   S
07          5.820   1.000   P
07          9.170   1.000   S
01          5.760   1.000   P
01          9.210   1.000   S
05          6.070   1.000   P
09         10.290   1.000   P
# 2023  1  6 21 38 29.07  26.8367  102.9702   15.32  0.00  0.56  1.06  0.20       545
08          2.700   1.000   P
08          4.730   1.000   S
01          3.060   1.000   P
01          4.970   1.000   S
06          3.590   1.000   P
06          5.710   1.000   S
07          3.980   1.000   P
07          6.030   1.000   S
05          4.120   1.000   P
05          7.170   1.000   S
09          4.570   1.000   P
09          7.130   1.000   S
10          6.220   1.000   P
10         10.270   1.000   S
03          8.510   1.000   P
03         13.880   1.000   S
# 2023  1  6 22 13 55.64  26.8275  102.9590   19.45  0.00  0.94  1.18  0.29       546
08          3.120   1.000   P
08          5.310   1.000   S
01          3.660   1.000   P
01          5.960   1.000   S
06          4.190   1.000   P
06          7.390   1.000   S
05          4.400   1.000   P
05          7.850   1.000   S
09          4.770   1.000   P
09          7.520   1.000   S
10          6.540   1.000   P
10         10.890   1.000   S
02          8.710   1.000   P
02         14.140   1.000   S
03          8.790   1.000   P
03         14.460   1.000   S
# 2023  1  6 22 19 20.66  27.0255  102.7972    2.51  0.00  4.38  6.23  0.48       547
05          1.160   1.000   P
05          1.660   1.000   S
09          6.140   1.000   P
09         10.340   1.000   S
07          7.800   1.000   P
# 2023  1  6 23  6 37.86  26.6383  103.0075    2.82  0.00  9.17  9.90  0.85       548
10          2.130   1.000   P
10          2.130   1.000   S
08          2.130   1.000   P
08          2.130   1.000   S
09          2.130   1.000   P
01          7.710   1.000   P
01         10.000   1.000   S
# 2023  1  6 23 10 13.03  26.8292  103.0217   16.49  0.00  1.86  3.34  0.45       549
08          4.870   1.000   S
07          5.320   1.000   S
01          5.650   1.000   S
06          4.510   1.000   P
09          5.320   1.000   P
# 2023  1  6 23 15 18.58  26.7495  102.8727    2.55  0.00  3.45  6.41  0.25       550
09          1.530   1.000   P
09          2.580   1.000   S
08          3.820   1.000   S
03         10.570   1.000   P
03         16.820   1.000   S
# 2023  1  7  0 47 17.02  27.0992  102.9620   10.34  0.00  2.33  2.30  0.21       551
05          3.180   1.000   P
05          5.280   1.000   S
02          3.690   1.000   P
02          5.480   1.000   S
01          4.390   1.000   P
01          6.220   1.000   S
09          7.860   1.000   P
09         13.730   1.000   S
# 2023  1  7  1 50 35.14  26.7793  103.1793   10.32  0.00  1.87  1.18  0.12       552
07          3.370   1.000   S
08          3.760   1.000   P
08          5.860   1.000   S
05          6.850   1.000   P
09         11.920   1.000   S
# 2023  1  7  2 53 57.84  27.1733  102.8888    2.70  0.00  5.54  8.63  0.31       553
03          1.530   1.000   P
03          3.140   1.000   S
04          7.290   1.000   S
09         15.020   1.000   S
10         21.280   1.000   S
# 2023  1  7  6 59  0.56  26.8122  103.0037    3.52  0.00  0.94  0.75  0.14       554
01          2.660   1.000   P
01          4.630   1.000   S
09          4.460   1.000   P
09          6.940   1.000   S
05          4.230   1.000   P
05          7.600   1.000   S
02          8.740   1.000   P
02         14.700   1.000   S
# 2023  1  7  7 18  5.75  27.0553  102.7413    2.51  0.00  9.24  4.47  1.02       555
05          3.410   1.000   P
05          4.250   1.000   S
07          7.080   1.000   P
10         12.350   1.000   P
10         18.110   1.000   S
# 2023  1  7  7 47 30.99  27.0737  102.9018    5.82  0.00  1.34  3.33  0.15       556
05          2.270   1.000   P
05          3.290   1.000   S
01          2.960   1.000   P
08         11.180   1.000   S
09          7.330   1.000   P
# 2023  1  7  9 18 27.07  27.2627  102.8915    4.43  0.00  4.76  3.80  0.53       557
02          1.970   1.000   P
02          3.770   1.000   S
04          6.400   1.000   P
04          8.090   1.000   S
06         10.190   1.000   S
# 2023  1  7 11 13 15.56  26.8975  102.8912   16.74  0.00  4.12  8.73  0.38       558
06          4.430   1.000   P
06          4.430   1.000   S
08          4.430   1.000   P
09          4.430   1.000   P
07          4.430   1.000   P
# 2023  1  7 11 38 45.48  26.8480  102.9382   16.60  0.00  2.97  4.01  0.78       559
01          2.790   1.000   P
01          4.630   1.000   S
05          6.660   1.000   P
07          6.110   1.000   P
07          6.320   1.000   S
09          4.390   1.000   P
09          6.910   1.000   S
02          8.140   1.000   P
02         13.700   1.000   S
03          7.380   1.000   P
03         13.700   1.000   S
# 2023  1  7 13 18  5.14  26.8580  102.8778    9.10  0.00  1.55  3.45  0.08       560
01          2.330   1.000   P
01          3.080   1.000   S
06          4.460   1.000   S
05          2.930   1.000   P
05          4.740   1.000   S
# 2023  1  7 14 10 39.94  27.3332  103.0373   17.00  0.00  3.38  3.10  0.50       561
02          3.280   1.000   P
02          5.600   1.000   S
03          3.550   1.000   P
03          5.260   1.000   S
07         10.900   1.000   P
07         16.140   1.000   S
09         21.710   1.000   S
# 2023  1  7 15 10 52.66  27.2838  102.8890   22.44  0.00  1.52  0.92  0.08       562
03          3.810   1.000   P
03          6.000   1.000   S
02          4.440   1.000   P
02          6.630   1.000   S
01         13.060   1.000   S
# 2023  1  7 15 39 14.07  26.9610  102.8883   10.94  0.00  1.24  1.15  0.39       563
05          1.380   1.000   P
05          2.880   1.000   S
01          1.670   1.000   P
01          3.580   1.000   S
09          5.380   1.000   P
09          8.880   1.000   S
07          8.290   1.000   S
02          6.530   1.000   P
02         10.290   1.000   S
# 2023  1  7 15 40  8.29  27.1217  102.8135   13.75  0.00  1.44  2.20  0.27       564
05          3.720   1.000   P
05          5.670   1.000   S
03          4.090   1.000   P
03          6.590   1.000   S
06          4.150   1.000   P
06          6.570   1.000   S
02          4.450   1.000   P
02          7.950   1.000   S
01          5.050   1.000   P
01          8.150   1.000   S
08          8.150   1.000   P
09          8.180   1.000   P
07          7.700   1.000   P
# 2023  1  7 16 37 54.89  26.8373  102.9598   17.62  0.00  0.59  1.84  0.15       565
01          3.450   1.000   P
01          5.250   1.000   S
07          4.490   1.000   P
07          6.650   1.000   S
05          4.160   1.000   P
05          7.190   1.000   S
09          4.780   1.000   P
09          7.390   1.000   S
# 2023  1  7 17  8 26.80  26.9667  103.0357    3.74  0.00  2.43  1.66  0.26       566
01          2.220   1.000   P
01          4.140   1.000   S
05          2.630   1.000   P
05          5.860   1.000   S
07          3.510   1.000   P
07          5.490   1.000   S
# 2023  1  7 17 17 22.66  26.9032  102.9968    8.14  0.00  2.49  2.73  0.20       567
01          1.790   1.000   P
01          3.090   1.000   S
05          3.110   1.000   P
09          5.490   1.000   P
09          8.460   1.000   S
# 2023  1  7 17 41 28.56  27.0522  102.8145    2.07  0.00  0.00  0.00  1.36       568
04          1.720   1.000   P
04          2.140   1.000   S
06          2.630   1.000   P
06          3.530   1.000   S
08          7.130   1.000   P
# 2023  1  7 18 24  6.85  27.0838  102.7650    4.28  0.00  3.22  3.08  0.26       569
04          1.160   1.000   P
04          2.570   1.000   S
01          4.900   1.000   P
01          7.290   1.000   S
09         12.330   1.000   S
# 2023  1  7 20 13  6.41  26.8113  102.9662   14.69  0.00  0.46  1.03  0.13       570
08          2.960   1.000   P
08          4.130   1.000   S
01          3.080   1.000   P
01          5.230   1.000   S
07          3.910   1.000   P
07          6.120   1.000   S
06          6.330   1.000   S
09          4.190   1.000   P
09          6.730   1.000   S
02          8.870   1.000   P
# 2023  1  7 20 33 43.78  26.8905  102.9573   14.46  0.00  1.25  3.02  0.32       571
05          3.660   1.000   P
05          5.160   1.000   S
08          4.020   1.000   P
08          5.490   1.000   S
07          4.090   1.000   P
09          4.400   1.000   P
09          8.350   1.000   S
02          7.430   1.000   P
# 2023  1  7 20 42 57.10  26.9470  102.7862    2.64  0.00  2.55  6.90  0.77       572
05          0.900   1.000   P
05          2.320   1.000   S
04          2.670   1.000   P
01          5.620   1.000   S
09          4.020   1.000   P
02          7.970   1.000   P
02         11.440   1.000   S
# 2023  1  7 21 13 44.17  27.0768  102.6742    2.34  0.00  0.00  0.00  4.46       573
04          0.650   1.000   P
04          1.830   1.000   S
05          5.810   1.000   P
05          6.430   1.000   S
02         11.400   1.000   S
# 2023  1  8  0  6 20.03  27.1317  102.7665    6.23  0.00  3.20  8.59  0.50       574
04          3.350   1.000   S
03          3.640   1.000   P
01          5.990   1.000   P
01          8.450   1.000   S
10         19.960   1.000   S
# 2023  1  8  0 34 56.11  26.9915  102.9192    2.14  0.00  0.00  0.00  3.32       575
05          0.790   1.000   S
01          2.210   1.000   S
04          4.510   1.000   P
04          6.080   1.000   S
# 2023  1  8  2 20 22.17  27.0328  102.9273   15.10  0.00  2.58  1.48  0.24       576
06          3.260   1.000   P
06          3.920   1.000   S
05          2.900   1.000   P
05          4.370   1.000   S
01          3.050   1.000   P
01          5.360   1.000   S
09          6.940   1.000   P
# 2023  1  8  2 33 11.18  26.6475  102.5227    9.10  0.00  2.03  4.87  0.13       577
09          8.810   1.000   S
04          8.810   1.000   P
08          8.810   1.000   P
01          8.810   1.000   P
02         23.880   1.000   S
# 2023  1  8  5 28 16.47  26.8310  102.9582   17.30  0.00  0.87  1.72  0.33       578
08          3.530   1.000   P
08          5.010   1.000   S
01          2.920   1.000   P
01          5.070   1.000   S
06          4.100   1.000   P
06          6.990   1.000   S
07          4.730   1.000   P
07          6.490   1.000   S
05          4.100   1.000   P
05          7.500   1.000   S
09          4.640   1.000   P
09          7.250   1.000   S
02          8.530   1.000   P
02         14.300   1.000   S
03         13.560   1.000   S
# 2023  1  8  5 59 42.58  26.8237  102.9040   14.43  0.00  1.04  2.19  0.28       579
01          3.140   1.000   P
01          4.930   1.000   S
08          3.170   1.000   P
08          4.800   1.000   S
09          4.580   1.000   P
09          5.320   1.000   S
06          3.490   1.000   P
06          6.000   1.000   S
05          3.900   1.000   P
05          6.140   1.000   S
07          4.870   1.000   P
# 2023  1  8  6 30 27.27  26.7568  102.9018   21.58  0.00  2.59  4.03  0.47       580
08          3.250   1.000   P
08          6.570   1.000   S
09          4.350   1.000   P
09          6.310   1.000   S
01          5.440   1.000   P
01          7.280   1.000   S
# 2023  1  8  6 51 42.66  26.8348  102.9043    2.15  0.00  0.00  0.00  7.96       581
01          0.720   1.000   P
01          3.000   1.000   S
08          2.580   1.000   P
08          3.480   1.000   S
02         14.380   1.000   S
# 2023  1  8  6 52 17.67  26.9158  103.0342    2.52  0.00  6.69  1.09  0.10       582
06          2.220   1.000   P
06          3.750   1.000   S
07          4.110   1.000   S
04          6.230   1.000   P
04         10.390   1.000   S
# 2023  1  8  7  1 44.23  27.0565  102.8578    8.03  0.00  4.25  5.47  0.70       583
05          2.410   1.000   P
05          3.150   1.000   S
06          4.270   1.000   S
01          2.260   1.000   P
01          4.570   1.000   S
07         12.330   1.000   S
09          7.230   1.000   P
09         11.890   1.000   S
# 2023  1  8  7 43 54.62  26.8588  102.9720   26.63  0.00  3.38  4.62  1.02       584
01          5.000   1.000   P
01          6.980   1.000   S
08          6.820   1.000   S
07          6.050   1.000   P
07          8.430   1.000   S
05          6.770   1.000   P
05          9.400   1.000   S
09          6.880   1.000   P
09          9.160   1.000   S
04          5.520   1.000   P
02          5.900   1.000   P
03         14.420   1.000   S
# 2023  1  8  9 21  3.00  26.8298  102.9603   16.33  0.00  0.81  1.54  0.26       585
08          3.070   1.000   P
08          5.070   1.000   S
01          3.150   1.000   P
01          4.940   1.000   S
07          4.190   1.000   P
07          6.440   1.000   S
05          3.980   1.000   P
05          7.140   1.000   S
09          4.610   1.000   P
09          7.160   1.000   S
02          8.440   1.000   P
03         15.190   1.000   S
# 2023  1  8  9 44 13.39  27.0332  102.7668   14.81  0.00  1.88  2.95  0.23       586
06          3.620   1.000   P
06          6.490   1.000   S
09          6.740   1.000   P
09         10.550   1.000   S
07          7.880   1.000   P
07         12.710   1.000   S
# 2023  1  8 10 17 33.37  26.8135  102.9605    2.51  0.00  5.35  3.96  0.35       587
01          1.820   1.000   P
01          3.570   1.000   S
09          3.700   1.000   P
09          5.920   1.000   S
03         15.570   1.000   S
# 2023  1  8 10 34 33.94  27.1340  102.8735   16.03  0.00  1.39  2.06  0.31       588
03          3.370   1.000   P
03          5.600   1.000   S
05          3.810   1.000   P
05          6.120   1.000   S
02          4.060   1.000   P
02          6.830   1.000   S
06          4.280   1.000   P
06          7.120   1.000   S
01          5.260   1.000   P
01          9.070   1.000   S
07          8.160   1.000   P
07         12.220   1.000   S
08          7.950   1.000   P
08         13.100   1.000   S
09          8.620   1.000   P
09         13.660   1.000   S
# 2023  1  8 11  7 30.68  27.1155  102.7660    4.49  0.00  2.49  1.72  0.21       589
04          1.840   1.000   P
04          3.220   1.000   S
06          4.420   1.000   P
02          5.380   1.000   P
02          8.190   1.000   S
